"ip";"port";"country code";"city";"region";"country";"level";"http";"https";"socks4";"socks5";"google";"twitter";"instagram";"telegram";"avito";"mailru";"real_ip";"response, msec";"good checks";"bad checks";"hostname"
"184.82.48.172";8080;"TH";"Khon Kaen";"Khon Kaen";"Таиланд";1;0;1;0;0;0;0;0;0;0;0;"184.82.48.172";277;823;1703;"184.82.48.172"
"182.53.75.33";8080;"TH";"Uttaradit";"Uttaradit";"Таиланд";1;0;1;0;0;0;0;0;0;0;0;"182.53.75.33";277;203;2;"node-eu9.pool-182-53.dynamic.nt-isp.net"
"180.245.126.34";8080;"ID";"Cirebon";"West Java";"Индонезия";1;0;1;0;0;0;0;0;0;0;0;"180.245.126.34";289;482;1213;"180.245.126.34"
"72.10.164.178";6177;"IN";"Bengaluru";"Karnataka";"Индия";1;1;1;0;0;0;0;0;0;0;0;"49.207.223.110";281;37;1;"49.207.223.110.actcorp.in"
"72.10.160.94";18115;"BR";"Recife";"Pernambuco";"Бразилия";1;1;1;0;0;0;0;0;0;0;0;"177.37.233.30";161;1;0;"177.37.233.30"
"72.10.160.91";24875;"AE";"Ajman";"Ajman";"ОАЭ";1;1;1;0;0;0;0;0;0;0;0;"109.177.46.154";160;1;0;"109.177.46.154"
"72.10.160.91";20503;"PH";"Davao City";"Province of Davao del Sur";"Филиппины";1;1;1;0;0;0;0;0;0;0;0;"49.145.205.126";159;1;0;"dsl.49.145.205.126.pldt.net"
"72.10.160.91";18775;"LK";"Colombo";"Colombo District";"Шри-Ланка";1;1;1;0;0;0;0;0;0;0;0;"112.135.71.162";159;1;0;"v4.dns.slt.lk"
"72.10.160.91";16067;"MM";"Yangon";"Yangon";"Мьянма (Бирма)";1;1;1;0;0;0;0;0;0;0;0;"38.158.205.115";159;1;0;"38.158.205.115"
"72.10.160.91";15135;"ID";"Banda Aceh";"Aceh";"Индонезия";1;0;1;0;0;0;0;0;0;0;0;"182.3.4.154";159;1;0;"182.3.4.154"
"72.10.160.91";12675;"BR";"Capivari de Baixo";"Santa Catarina";"Бразилия";1;1;1;0;0;0;0;0;0;0;0;"138.204.120.159";159;1;0;"138.204.120.159"
"72.10.160.91";3789;"MX";"Guadalupe";"Nuevo Len";"Мексика";1;1;1;0;0;0;0;0;0;0;0;"187.138.231.171";158;1;0;"dsl-187-138-231-171-dyn.prod-infinitum.com.mx"
"72.10.160.91";1245;"AR";"Buenos Aires";"Buenos Aires";"Аргентина";1;1;1;0;0;0;0;0;0;0;0;"190.231.230.192";158;1;0;"190.231.230.192"
"72.10.160.90";31113;"GT";"Quetzaltenango";"Quetzaltenango";"Гватемала";1;1;1;0;0;0;0;0;0;0;0;"168.227.131.238";158;7;0;"168-227-131-238.reverse.cablecolor.com.gt"
"72.10.160.90";23869;"CL";"Tocopilla";"Antofagasta";"Чили";1;1;1;0;0;0;0;0;0;0;0;"152.173.49.18";158;7;0;"152.173.49.18"
"72.10.160.90";22609;"MX";"San Luis Potos City";"San Luis Potos";"Мексика";1;1;1;0;0;0;0;0;0;0;0;"201.152.95.138";158;7;0;"dsl-201-152-95-138-dyn.prod-infinitum.com.mx"
"72.10.160.90";13793;"IN";"Kottayam";"Kerala";"Индия";1;1;1;0;0;0;0;0;0;0;0;"103.189.143.228";158;7;0;"103.189.143.228"
"72.10.160.90";7051;"PK";"";"";"Пакистан";1;1;1;0;0;0;0;0;0;0;0;"203.128.9.166";158;7;0;"203.128.9.166"
"72.10.160.90";4777;"MY";"Kuala Lumpur";"Kuala Lumpur";"Малайзия";1;1;1;0;0;0;0;0;0;0;0;"180.75.253.197";158;7;0;"180.75.253.197"
"54.176.198.158";3128;"US";"San Jose";"California";"США";1;1;1;0;0;0;0;0;0;0;0;"54.176.198.158";278;11;0;"ec2-54-176-198-158.us-west-1.compute.amazonaws.com"
"192.73.244.36";54055;"VN";"Thanh Ha";"Thanh Ha Province";"Вьетнам";1;1;1;0;0;0;0;0;0;0;0;"171.241.227.205";282;47;8;"dynamic-adsl.viettel.vn"
"101.51.160.237";8080;"TH";"Pattaya";"Chon Buri";"Таиланд";1;0;1;0;0;0;0;1;0;0;0;"101.51.160.237";251;18;20;"101.51.160.237"
"72.10.164.178";3867;"KR";"";"";"Республика Корея";1;1;1;0;0;0;0;1;1;1;0;"1.233.201.181";252;95;4;"1.233.201.181"
"72.10.160.170";18959;"PE";"Lima";"Lima Province";"Перу";1;1;1;0;0;1;0;1;1;1;0;"181.233.26.58";252;4;1;"181.233.26.58"
"171.213.227.231";8118;"CN";"Chengdu";"Sichuan";"Китай";1;1;1;0;0;0;0;0;0;1;0;"171.213.227.231";385;20;4;"171.213.227.231"
"124.120.142.144";8081;"TH";"Bangkok";"Bangkok";"Таиланд";1;0;1;0;0;0;0;0;0;0;0;"124.120.142.144";272;100;298;"ppp-124-120-142-144.revip2.asianet.co.th"
"72.10.164.178";11125;"CH";"Oberrohrdorf";"Aargau";"Швейцария";1;1;1;0;0;0;0;0;0;0;0;"31.10.131.133";275;3;1;"31-10-131-133.cgn.dynamic.upc.ch"
"72.10.164.178";9723;"PE";"Lima";"Lima Province";"Перу";1;1;1;0;0;0;0;1;1;1;0;"177.53.155.28";275;9;1;"177-53-155-28.liber.com.pe"
"72.10.160.171";5825;"PE";"Lima";"Lima Province";"Перу";1;1;1;0;0;0;0;1;1;1;0;"38.25.22.133";148;15;3;"38.25.22.133"
"72.10.160.170";23607;"HK";"";"";"Гонконг";1;1;1;0;0;1;0;1;1;1;0;"58.152.244.223";148;4;1;"n058152244223.netvigator.com"
"72.10.160.170";21509;"MM";"Yangon";"Yangon";"Мьянма (Бирма)";1;1;1;0;0;0;0;0;1;0;0;"103.135.217.166";148;7;0;"103.135.217.166"
"72.10.160.170";20061;"BD";"Dhaka";"Dhaka";"Бангладеш";1;1;1;0;0;0;0;1;1;1;0;"45.118.60.6";148;7;0;"45.118.60.6"
"72.10.160.170";8107;"US";"Glen Allen";"Virginia";"США";1;1;1;0;0;0;0;1;1;1;0;"173.53.3.83";148;7;0;"pool-173-53-3-83.rcmdva.fios.verizon.net"
"72.10.160.170";3647;"MX";"Benito Juarez";"Mexico City";"Мексика";1;1;1;0;0;0;0;1;1;1;0;"201.141.121.150";148;7;0;"customer-201-141-121-150.cablevision.net.mx"
"72.10.160.170";1043;"VN";"Hi Dng";"Hi Dng Province";"Вьетнам";1;1;1;0;0;0;0;1;0;1;0;"222.252.199.123";148;12;3;"static.vnpt.vn"
"72.10.160.90";31903;"MY";"Cyberjaya";"Selangor";"Малайзия";1;1;1;0;0;0;0;1;0;0;0;"60.52.96.44";148;4;1;"60.52.96.44"
"67.43.236.18";22593;"TW";"Taipei";"Taipei City";"Тайвань";1;1;1;0;0;0;0;1;1;1;0;"39.14.1.182";149;15;3;"39-14-1-182.adsl.fetnet.net"
"67.43.236.18";6433;"ID";"Jakarta";"Jakarta";"Индонезия";1;1;1;0;0;0;0;1;1;1;0;"180.244.162.34";149;19;2;"180.244.162.34"
"31.6.41.124";8118;"CH";"Zurich";"Zurich";"Швейцария";1;0;1;0;0;0;0;0;0;0;0;"31.6.41.124";269;416;771;"31.6.41.124"
"14.224.174.168";4080;"VN";"Thi Bnh";"Thi Bnh Province";"Вьетнам";1;1;1;0;0;0;0;0;0;0;0;"14.188.230.67";269;58;12;"static.vnpt.vn"
"14.224.165.146";3413;"VN";"Ha Bnh";"Ha Bnh Province";"Вьетнам";1;1;1;0;0;0;0;0;0;0;0;"113.186.210.254";270;47;10;"static.vnpt.vn"
"223.206.124.51";8080;"TH";"Bang Lamung";"Chon Buri";"Таиланд";1;0;1;0;0;0;0;1;1;1;0;"223.206.126.45";339;373;6;"223.206.126.45"
"72.10.160.170";33265;"VE";"";"";"Венесуэла";1;1;1;0;0;1;0;1;1;1;0;"190.206.56.40";168;1;0;"190-206-56-40.dyn.dsl.cantv.net"
"72.10.160.170";32281;"US";"Chicago";"Illinois";"США";1;1;1;0;0;1;0;1;1;1;0;"50.171.202.83";168;1;0;"c-50-171-202-83.unallocated.comcastbusiness.net"
"72.10.160.170";30813;"AR";"Monte Grande";"Buenos Aires";"Аргентина";1;1;1;0;0;0;0;1;1;1;0;"190.246.8.67";168;1;0;"190.246.8.67"
"72.10.160.170";28877;"PE";"Lima";"Lima Province";"Перу";1;1;1;0;0;1;0;1;1;1;0;"190.236.9.212";285;1;0;"190.236.9.212"
"72.10.160.170";28051;"PH";"San Juan";"Metro Manila";"Филиппины";1;1;1;0;0;1;0;1;1;1;0;"120.28.160.166";168;1;0;"120.28.160.166"
"72.10.160.170";27401;"BR";"Pelotas";"Rio Grande do Sul";"Бразилия";1;1;1;0;0;1;0;1;1;1;0;"177.22.163.17";167;1;0;"177.22.163.17"
"72.10.160.170";21785;"KR";"Wnju";"Gangwon-do";"Республика Корея";1;1;1;0;0;1;0;1;1;1;0;"1.244.212.42";167;1;0;"1.244.212.42"
"72.10.160.170";20729;"AE";"Dubai";"Dubai";"ОАЭ";1;1;1;0;0;1;0;1;1;1;0;"86.99.26.98";167;1;0;"bba-86-99-26-98.alshamil.net.ae"
"72.10.160.170";14333;"PK";"Karachi";"Sindh";"Пакистан";1;1;1;0;0;1;0;1;0;1;0;"203.101.190.48";167;1;0;"203.101.190.48"
"72.10.160.170";13485;"MY";"Skudai";"Johor";"Малайзия";1;1;1;0;0;1;0;1;1;1;0;"147.158.186.240";167;1;0;"147.158.186.240"
"72.10.160.170";13145;"AR";"Avellaneda";"Buenos Aires";"Аргентина";1;1;1;0;0;1;0;1;1;1;0;"181.116.177.203";167;1;0;"181.116.177.203"
"72.10.160.170";11225;"PE";"Lima";"Lima Province";"Перу";1;1;1;0;0;1;0;1;1;1;0;"38.253.189.219";167;1;0;"38.253.189.219"
"72.10.160.170";10731;"VN";"Hanoi";"Hanoi";"Вьетнам";1;1;1;0;0;1;0;1;0;1;0;"14.248.63.38";167;1;0;"14.248.63.38"
"72.10.160.170";8317;"VN";"Ho Chi Minh City";"Ho Chi Minh";"Вьетнам";1;1;1;0;0;0;0;0;0;0;0;"116.110.43.219";284;1;0;"116.110.43.219"
"72.10.160.170";7409;"KR";"Gwangju";"Gyeonggi-do";"Республика Корея";1;1;1;0;0;1;0;1;1;1;0;"175.121.64.224";167;1;0;"175.121.64.224"
"72.10.160.170";7069;"ID";"Bekasi";"West Java";"Индонезия";1;1;1;0;0;1;0;1;1;1;0;"180.252.122.39";167;1;0;"180.252.122.39"
"72.10.160.170";6931;"AR";"Godoy Cruz";"Mendoza";"Аргентина";1;1;1;0;0;1;0;1;1;1;0;"181.118.9.50";167;1;0;"181.118.9.50"
"72.10.160.170";4349;"ID";"Tulungagung";"East Java";"Индонезия";1;1;1;0;0;1;0;1;1;1;0;"110.138.105.228";167;1;0;"110.138.105.228"
"72.10.160.170";4123;"IN";"";"";"Индия";1;1;1;0;0;1;0;1;1;1;0;"157.50.189.79";167;1;0;"157.50.189.79"
"72.10.160.170";4091;"AR";"Ezeiza";"Buenos Aires";"Аргентина";1;1;1;0;0;1;0;1;1;1;0;"201.176.219.142";167;1;0;"201-176-219-142.speedy.com.ar"
"72.10.160.90";32341;"IN";"Agra";"Uttar Pradesh";"Индия";1;1;1;0;0;1;0;1;1;1;0;"157.49.182.227";166;1;0;"157.49.182.227"
"72.10.160.90";31533;"VN";"Haiphong";"Haiphong";"Вьетнам";1;1;1;0;0;0;0;1;0;1;0;"14.190.181.182";166;1;0;"14.190.181.182"
"72.10.160.90";29361;"AE";"Dubai";"Dubai";"ОАЭ";1;1;1;0;0;1;0;1;1;1;0;"2.51.65.17";166;1;0;"2.51.65.17"
"72.10.160.90";28535;"IN";"Bhubaneswar";"Odisha";"Индия";1;1;1;0;0;1;0;1;1;1;0;"49.37.114.5";166;1;0;"49.37.114.5"
"72.10.160.90";27295;"ID";"";"";"Индонезия";1;1;1;0;0;1;0;1;1;1;0;"180.249.187.79";166;1;0;"180.249.187.79"
"72.10.160.90";25531;"CA";"Montreal";"Quebec";"Канада";1;1;1;0;0;1;0;1;1;1;0;"64.228.102.64";166;1;0;"bras-base-mtrlpq427bw-grc-36-64-228-102-64.dsl.bell.ca"
"72.10.160.90";21381;"EC";"Ibarra";"Imbabura";"Эквадор";1;1;1;0;0;1;0;1;1;1;0;"45.70.13.163";166;1;0;"edge-163-13-70-45.iplus.com.ec"
"72.10.160.90";21291;"VE";"Caracas";"Distrito Federal";"Венесуэла";1;1;1;0;0;1;0;1;1;1;0;"143.105.147.0";166;1;0;"customer.bgtacol1.pop.starlinkisp.net"
"72.10.160.90";19309;"BR";"Concrdia";"Santa Catarina";"Бразилия";1;1;1;0;0;1;0;1;1;1;0;"177.126.194.145";166;1;0;"145.194.126.177.mhnet.com.br"
"72.10.160.90";19189;"BR";"So Jos dos Campos";"So Paulo";"Бразилия";1;1;1;0;0;1;0;1;1;1;0;"177.62.130.131";166;1;0;"177.62.130.131"
"72.10.160.90";18345;"PE";"Trujillo";"La Libertad";"Перу";1;1;1;0;0;1;0;1;1;1;0;"181.64.18.84";166;1;0;"181.64.18.84"
"72.10.160.90";15781;"MX";"Mexico City";"Mexico City";"Мексика";1;1;1;0;0;1;0;1;1;1;0;"143.105.17.203";166;1;0;"customer.qrtomex1.pop.starlinkisp.net"
"72.10.160.90";15535;"ID";"Ambon City";"Maluku";"Индонезия";1;1;1;0;0;1;0;1;1;1;0;"180.253.184.110";166;1;0;"180.253.184.110"
"72.10.160.90";15135;"ID";"Banda Aceh";"Aceh";"Индонезия";1;0;1;0;0;1;0;1;1;1;0;"182.3.4.66";166;1;0;"182.3.4.66"
"72.10.160.90";13505;"AR";"La Plata";"Buenos Aires";"Аргентина";1;1;1;0;0;1;0;1;1;1;0;"190.17.190.115";166;1;0;"190.17.190.115"
"72.10.160.90";13467;"HK";"";"";"Гонконг";1;1;1;0;0;1;0;1;1;1;0;"61.239.117.233";166;1;0;"61.239.117.233"
"72.10.160.90";12783;"KR";"Seongnam-si";"Gyeonggi-do";"Республика Корея";1;1;1;0;0;1;0;1;1;1;0;"112.170.31.35";166;1;0;"112.170.31.35"
"72.10.160.90";12149;"MY";"";"";"Малайзия";1;1;1;0;0;1;0;1;1;1;0;"119.40.120.106";165;1;0;"119.40.120.106"
"72.10.160.90";10527;"GT";"Guatemala City";"Guatemala";"Гватемала";1;1;1;0;0;1;0;1;1;1;0;"190.148.50.33";165;1;0;"190.148.50.33"
"72.10.160.90";10153;"TH";"Bangkok";"Bangkok";"Таиланд";1;1;1;0;0;0;0;1;1;1;0;"171.6.25.171";165;1;0;"171.6.25.171"
"72.10.160.90";9329;"CO";"Bogot";"Bogota D.C.";"Колумбия";1;1;1;0;0;1;0;1;1;1;0;"181.50.58.93";165;1;0;"181.50.58.93"
"72.10.160.90";9021;"ID";"Kediri";"East Java";"Индонезия";1;1;1;0;0;1;0;1;1;1;0;"180.248.10.212";165;1;0;"180.248.10.212"
"72.10.160.90";7657;"ID";"";"";"Индонезия";1;1;1;0;0;0;0;1;1;1;0;"118.99.123.12";165;1;0;"118.99.123.12"
"72.10.160.90";6007;"AR";"Baradero";"Buenos Aires";"Аргентина";1;1;1;0;0;0;0;1;1;1;0;"186.138.107.31";165;1;0;"186.138.107.31"
"72.10.160.90";1095;"AE";"Ajman";"Ajman";"ОАЭ";1;1;1;0;0;1;0;1;1;1;0;"5.194.187.41";165;1;0;"5.194.187.41"
"67.43.236.21";32351;"PK";"Hyderabad";"Sindh";"Пакистан";1;1;1;0;0;1;0;1;0;1;0;"137.59.217.110";164;1;0;"137.59.217.110"
"67.43.236.21";5061;"TW";"Hsinchu";"Hsinchu City";"Тайвань";1;1;1;0;0;1;0;1;1;1;0;"36.228.114.193";163;1;0;"36-228-114-193.dynamic-ip.hinet.net"
"67.43.236.20";32351;"PK";"Hyderabad";"Sindh";"Пакистан";1;0;1;0;0;1;0;1;0;1;0;"137.59.217.83";162;1;0;"137.59.217.83"
"67.43.236.20";5025;"VN";"Ho Chi Minh City";"Ho Chi Minh";"Вьетнам";1;1;1;0;0;0;0;0;0;0;0;"116.96.78.90";161;1;0;"116.96.78.90"
"67.43.236.19";32351;"PK";"Hyderabad";"Sindh";"Пакистан";1;0;1;0;0;1;0;1;0;1;0;"137.59.217.82";161;1;0;"137.59.217.82"
"67.43.236.19";27151;"AR";"Mar del Plata";"Buenos Aires";"Аргентина";1;1;1;0;0;1;0;1;1;1;0;"201.179.56.238";161;1;0;"201.179.56.238"
"67.43.236.19";7443;"ES";"Tomares";"Seville";"Испания";1;1;1;0;0;0;0;0;0;0;0;"81.36.184.195";161;1;0;"195.red-81-36-184.dynamicip.rima-tde.net"
"67.43.236.18";32949;"AE";"Sharjah";"Sharjah";"ОАЭ";1;1;1;0;0;1;0;1;1;1;0;"86.96.109.83";160;1;0;"86.96.109.83"
"67.43.236.18";32619;"MX";"Lomas del Chamizal";"Mexico City";"Мексика";1;1;1;0;0;1;0;1;1;1;0;"189.132.93.243";160;1;0;"dsl-189-132-93-243-dyn.prod-infinitum.com.mx"
"67.43.236.18";30787;"PK";"Faisalabad";"Punjab";"Пакистан";1;1;1;0;0;1;0;1;0;1;0;"119.73.115.24";160;1;0;"119.73.115.24"
"67.43.236.18";30697;"US";"Frisco";"Texas";"США";1;1;1;0;0;1;0;1;1;1;0;"99.126.76.158";160;1;0;"99-126-76-158.lightspeed.rcsntx.sbcglobal.net"
"67.43.236.18";30399;"VE";"Caracas";"Distrito Federal";"Венесуэла";1;1;1;0;0;1;0;0;0;0;0;"143.105.146.207";160;1;0;"customer.bgtacol1.pop.starlinkisp.net"
"67.43.236.18";30055;"IN";"New Delhi";"National Capital Territory of Delhi";"Индия";1;1;1;0;0;1;0;1;1;0;1;"103.61.252.4";160;1;0;"skynetdwarka.com"
"67.43.236.18";27575;"IN";"Bengaluru";"Karnataka";"Индия";1;1;1;0;0;1;0;0;0;0;0;"171.76.83.80";160;1;0;"171.76.83.80"
"67.43.236.18";25167;"ID";"Malang";"East Java";"Индонезия";1;1;1;0;0;1;0;1;1;1;0;"180.248.19.243";160;1;0;"180.248.19.243"
"67.43.236.18";23271;"VE";"Barcelona";"Anzotegui";"Венесуэла";1;1;1;0;0;1;0;1;1;1;0;"200.75.127.85";160;1;0;"200.75.127.85"
"67.43.236.18";22651;"US";"New York";"New York";"США";1;1;1;0;0;0;0;0;0;0;0;"89.116.158.68";160;1;0;"89.116.158.68"
"67.43.236.18";18469;"PE";"Lima region";"Lima region";"Перу";1;1;1;0;0;1;0;1;1;1;0;"179.1.151.27";160;1;0;"179.1.151.27"
"67.43.236.18";14365;"IN";"Pune";"Maharashtra";"Индия";1;1;1;0;0;1;0;1;1;1;0;"103.81.36.98";160;1;0;"103.81.36.98"
"67.43.236.18";12225;"IN";"Mumbai";"Maharashtra";"Индия";1;1;1;0;0;1;0;1;1;1;0;"152.58.46.90";160;1;0;"152.58.46.90"
"67.43.236.18";9139;"PH";"Angeles City";"Province of Pampanga";"Филиппины";1;1;1;0;0;1;0;1;1;1;0;"120.29.77.184";160;1;0;"184.77.29.120-rev.convergeict.com"
"67.43.236.18";8923;"AE";"Abu Dhabi";"Abu Dhabi";"ОАЭ";1;1;1;0;0;1;0;1;1;1;0;"5.38.7.160";160;1;0;"5.38.7.160"
"67.43.236.18";8279;"AE";"Abu Dhabi";"Abu Dhabi";"ОАЭ";1;1;1;0;0;1;0;1;1;1;0;"92.96.206.135";160;1;0;"92.96.206.135"
"67.43.236.18";7151;"AR";"Crdoba";"Cordoba";"Аргентина";1;1;1;0;0;1;0;1;1;1;0;"181.116.168.244";160;1;0;"181.116.168.244"
"67.43.236.18";6947;"UY";"Montevideo";"Montevideo Department";"Уругвай";1;1;1;0;0;1;0;1;1;1;0;"186.55.120.32";160;1;0;"r186-55-120-32.dialup.adsl.anteldata.net.uy"
"67.43.236.18";6555;"IN";"Ahmedabad";"Gujarat";"Индия";1;1;1;0;0;1;0;1;1;1;0;"49.36.68.208";160;1;0;"49.36.68.208"
"67.43.236.18";5021;"AE";"Abu Dhabi";"Abu Dhabi";"ОАЭ";1;1;1;0;0;1;0;1;1;1;0;"92.96.120.202";160;1;0;"bba-92-96-120-202.alshamil.net.ae"
"67.43.236.18";2987;"PE";"Lima";"Lima Province";"Перу";1;1;1;0;0;0;0;1;1;1;0;"179.6.160.132";160;1;0;"179.6.160.132"
"67.43.228.254";25627;"ID";"South Tangerang";"Banten";"Индонезия";1;0;1;0;0;1;0;1;1;1;0;"158.140.191.86";159;1;0;"host-158.140.191-86.myrepublic.co.id"
"72.10.160.171";17017;"IN";"Bengaluru";"Karnataka";"Индия";1;1;1;0;0;1;0;1;1;1;0;"49.37.250.103";161;3;1;"49.37.250.103"
"72.10.160.170";19235;"BO";"La Paz";"La Paz Department";"Боливия";1;1;1;0;0;0;0;1;1;1;0;"190.129.166.29";161;15;1;"190.129.166.29"
"72.10.160.170";12359;"IN";"Bengaluru";"Karnataka";"Индия";1;1;1;0;0;0;0;1;1;1;0;"49.207.195.231";161;12;1;"49.207.195.231.actcorp.in"
"72.10.160.90";12885;"KR";"Cheongju-si";"North Chungcheong";"Республика Корея";1;1;1;0;0;0;0;1;1;1;0;"220.125.59.25";161;55;2;"220.125.59.25"
"72.10.160.90";10833;"ID";"Surakarta";"Central Java";"Индонезия";1;1;1;0;0;0;0;1;1;1;0;"36.68.9.188";161;4;0;"36.68.9.188"
"72.10.160.170";23127;"AR";"Mendoza";"Mendoza";"Аргентина";1;1;1;0;0;0;0;1;1;1;0;"181.21.30.129";244;15;1;"181.21.30.129"
"27.71.133.55";16000;"VN";"";"Lm ng Province";"Вьетнам";1;1;1;0;0;0;0;1;0;0;0;"27.71.133.55";245;213;78;"localhost"
"117.235.69.180";8080;"IN";"Alwar";"Rajasthan";"Индия";1;0;1;0;0;1;0;1;1;1;0;"117.235.69.180";398;3;0;"117.235.69.180"
"113.172.127.221";1027;"VN";"Qun Bnh Thnh";"Ho Chi Minh";"Вьетнам";1;1;1;0;0;1;0;1;0;1;0;"113.172.119.51";282;3;0;"113.172.119.51"
"99.56.147.242";56250;"US";"Richardson";"Texas";"США";1;0;1;0;0;0;0;0;0;0;0;"99.56.147.242";1292;1316;7248;"99.56.147.242"
"72.10.164.178";32851;"TH";"Bang Lamung";"Chon Buri";"Таиланд";1;1;1;0;0;1;0;1;1;1;0;"223.204.216.230";164;3;0;"mx-ll-223.204.216-230.dynamic.3bb.in.th"
"72.10.164.178";31711;"CO";"Bogot";"Bogota D.C.";"Колумбия";1;1;1;0;0;1;0;1;1;1;0;"186.81.58.89";164;3;0;"186.81.58.89"
"72.10.164.178";31457;"US";"Gonzales";"Louisiana";"США";1;0;1;0;0;0;0;1;0;0;0;"70.189.24.172";164;3;0;"ip70-189-24-172.lf.br.cox.net"
"72.10.164.178";26601;"TW";"New Taipei City";"New Taipei City";"Тайвань";1;1;1;0;0;1;0;1;1;1;0;"101.10.95.26";164;3;0;"101.10.95.26"
"72.10.164.178";26529;"MY";"Kuala Lumpur";"Kuala Lumpur";"Малайзия";1;1;1;0;0;1;0;1;1;1;0;"113.211.215.249";164;3;0;"113.211.215.249"
"72.10.164.178";26303;"IN";"Medinpur";"West Bengal";"Индия";1;1;1;0;0;1;0;1;1;1;0;"122.177.241.138";164;3;0;"abts-north-dynamic-138.241.177.122.airtelbroadband.in"
"72.10.164.178";25605;"PK";"Islamabad";"Islamabad";"Пакистан";1;1;1;0;0;0;0;1;0;1;0;"154.192.18.45";159;6;0;"154.192.18.45"
"72.10.164.178";25303;"MX";"Cancn";"Quintana Roo";"Мексика";1;1;1;0;0;0;0;1;1;1;0;"190.61.32.153";159;6;0;"153-32-61-190.ufinet.com.mx"
"72.10.164.178";25159;"CA";"Toronto";"Ontario";"Канада";1;1;1;0;0;0;0;1;1;1;0;"173.32.202.119";158;6;0;"173.32.202.119"
"72.10.164.178";25041;"EC";"Machala";"El Oro";"Эквадор";1;1;1;0;0;0;0;1;1;1;0;"186.178.152.206";164;3;0;"206.152.178.186.static.anycast.cnt-grms.ec"
"72.10.164.178";24491;"AE";"Abu Dhabi";"Abu Dhabi";"ОАЭ";1;1;1;0;0;1;0;1;1;0;0;"94.59.104.121";164;6;0;"bba-94-59-104-121.alshamil.net.ae"
"72.10.164.178";24309;"CA";"Milton";"Ontario";"Канада";1;1;1;0;0;1;0;1;1;1;0;"174.95.84.60";164;3;0;"bras-base-mltnon2530w-grc-24-174-95-84-60.dsl.bell.ca"
"72.10.164.178";24241;"PH";"Makati City";"Metro Manila";"Филиппины";1;1;1;0;0;0;0;1;1;1;0;"119.93.214.234";159;3;0;"119.93.214.234"
"72.10.164.178";23065;"AE";"Abu Dhabi";"Abu Dhabi";"ОАЭ";1;1;1;0;0;1;0;1;1;1;0;"92.99.111.228";164;3;0;"bba-92-99-111-228.alshamil.net.ae"
"72.10.164.178";21737;"ID";"Jakarta";"Jakarta";"Индонезия";1;1;1;0;0;0;0;1;1;1;0;"139.192.228.131";164;3;0;"139.192.228.131"
"72.10.164.178";21669;"PE";"Lima";"Lima Province";"Перу";1;1;1;0;0;0;0;1;1;1;0;"190.239.139.214";164;6;0;"190.239.139.214"
"72.10.164.178";21079;"CA";"Toronto";"Ontario";"Канада";1;1;1;0;0;0;0;1;1;1;0;"74.15.103.46";164;3;0;"bras-base-toroon0817w-grc-54-74-15-103-46.dsl.bell.ca"
"72.10.164.178";20663;"MN";"Ulan Bator";"Ulaanbaatar";"Монголия";1;1;1;0;0;0;0;1;1;1;0;"66.181.176.159";159;6;0;"66.181.176.159"
"72.10.164.178";19679;"IN";"Bengaluru";"Karnataka";"Индия";1;1;1;0;0;0;0;1;1;1;0;"223.185.132.174";164;6;0;"223.185.132.174"
"72.10.164.178";18779;"KW";"As Slimyah";"Hawalli";"Кувейт";1;1;1;0;0;0;0;1;1;1;0;"37.231.32.170";159;6;0;"37.231.32.170"
"72.10.164.178";18745;"EC";"Quito";"Pichincha";"Эквадор";1;1;1;0;0;0;0;1;1;1;0;"201.183.99.137";164;3;0;"201.183.99.137"
"72.10.164.178";18089;"MX";"Ecatepec";"Mxico";"Мексика";1;1;1;0;0;0;0;1;1;1;0;"189.217.110.92";159;3;0;"customer-189-217-110-92.cablevision.net.mx"
"72.10.164.178";18035;"IN";"Kolkata";"West Bengal";"Индия";1;1;1;0;0;1;0;1;1;1;0;"49.37.33.37";164;3;0;"49.37.33.37"
"72.10.164.178";17615;"MX";"Santa Mara Chimalhuacn";"Mxico";"Мексика";1;1;1;0;0;1;0;1;1;1;0;"177.245.67.103";159;3;0;"177.245.67.103"
"72.10.164.178";17605;"MX";"Morelia";"Michoacn";"Мексика";1;1;1;0;0;0;0;1;1;1;0;"189.243.35.209";159;6;0;"dsl-189-243-35-209-dyn.prod-infinitum.com.mx"
"72.10.164.178";16929;"MX";"Cancn";"Quintana Roo";"Мексика";1;1;1;0;0;1;0;1;1;1;0;"187.252.192.137";164;3;0;"187.252.192.137"
"72.10.164.178";13995;"PK";"Lahore";"Punjab";"Пакистан";1;1;1;0;0;1;0;1;0;1;0;"103.151.46.94";164;3;0;"94.46.zcomnetworks.com.pk"
"72.10.164.178";11869;"AE";"Dubai";"Dubai";"ОАЭ";1;1;1;0;0;1;0;1;1;1;0;"5.30.177.129";159;3;0;"5.30.177.129"
"72.10.164.178";8997;"PE";"Lima";"Lima Province";"Перу";1;1;1;0;0;1;0;1;1;1;0;"190.234.175.252";269;3;0;"190.234.175.252"
"72.10.164.178";6721;"PA";"Panama City";"Provincia de Panam";"Панама";1;0;1;0;0;0;0;1;1;1;0;"179.63.192.98";269;3;0;"host-179-63-192-098.metrompls.com"
"72.10.164.178";6679;"VE";"Caracas";"Distrito Federal";"Венесуэла";1;1;1;0;0;0;0;1;1;1;0;"45.230.46.37";159;6;0;"45.230.46.37"
"72.10.164.178";6073;"PK";"";"";"Пакистан";1;1;1;0;0;0;0;1;0;1;0;"103.225.221.78";159;6;0;"103.225.221.78"
"72.10.164.178";5557;"BR";"Braslia";"Federal District";"Бразилия";1;1;1;0;0;1;0;1;1;1;0;"189.39.178.111";269;3;0;"189.39.178.111"
"72.10.164.178";2489;"NP";"Kathmandu";"Bagmati Province";"Непал";1;1;1;0;0;0;0;1;1;1;0;"103.190.40.250";159;6;0;"103.190.40.250"
"72.10.160.170";30483;"DO";"Santo Domingo";"Nacional";"Доминиканская Республика";1;1;1;0;0;1;0;1;1;1;0;"66.9.172.151";159;4;0;"customer.mmmiflx1.pop.starlinkisp.net"
"72.10.160.170";29285;"PK";"Islamabad";"Islamabad";"Пакистан";1;1;1;0;0;1;0;1;0;1;0;"154.192.17.61";159;4;0;"154.192.17.61"
"72.10.160.170";28183;"GB";"Woking";"Surrey";"Великобритания";1;1;1;0;0;0;0;1;1;1;0;"82.1.193.27";159;4;0;"nmal-23-b2-v4wan-170460-cust282.vm24.cable.virginm.net"
"72.10.160.170";27449;"BH";"Hamad Town";"Northern";"Бахрейн";1;1;1;0;0;0;0;1;1;1;0;"109.161.186.140";159;4;0;"109-161-186-140.rev.bb.zain.com"
"72.10.160.170";23643;"HK";"";"";"Гонконг";1;1;1;0;0;0;0;1;1;1;0;"218.102.151.45";159;4;0;"pcd619045.netvigator.com"
"72.10.160.170";22215;"US";"Oxnard";"California";"США";1;1;1;0;0;0;0;1;1;1;0;"47.153.178.102";159;4;0;"47.153.178.102"
"72.10.160.170";21173;"US";"Chicago";"Illinois";"США";1;0;1;0;0;0;0;1;1;1;0;"38.122.243.206";269;4;0;"38.122.243.206"
"72.10.160.170";20987;"AR";"La Plata";"Buenos Aires";"Аргентина";1;1;1;0;0;0;0;1;1;1;0;"181.169.165.84";159;4;0;"181.169.165.84"
"72.10.160.170";19919;"PH";"Quezon City";"Metro Manila";"Филиппины";1;1;1;0;0;0;0;1;1;1;0;"122.53.37.2";158;4;0;"122.53.37.2"
"72.10.160.170";15109;"US";"Atlanta";"Georgia";"США";1;1;1;0;0;0;0;1;1;1;0;"73.237.98.14";158;4;0;"73.237.98.14"
"72.10.160.170";12379;"CR";"San Jos";"Provincia de San Jos";"Коста-Рика";1;1;1;0;0;0;0;1;1;1;0;"190.171.113.110";158;4;0;"rev110.113.nstelecablecr.com"
"72.10.160.170";11057;"PH";"Lubao";"Province of Pampanga";"Филиппины";1;1;1;0;0;1;0;1;1;1;0;"124.104.212.124";158;4;0;"124.104.212.124"
"72.10.160.91";21771;"KR";"Dalseo-gu";"Daegu";"Республика Корея";1;1;1;0;0;0;0;1;1;1;0;"58.237.92.18";158;4;0;"58.237.92.18"
"72.10.160.91";8815;"US";"Reston";"Virginia";"США";1;1;1;0;0;0;0;1;1;1;0;"100.36.29.201";158;4;0;"pool-100-36-29-201.washdc.fios.verizon.net"
"72.10.160.90";31841;"US";"Middletown";"Delaware";"США";1;1;1;0;0;0;0;1;1;1;0;"70.16.140.54";157;4;0;"pool-70-16-140-54.phlapa.fios.verizon.net"
"72.10.160.90";28579;"IN";"Kolkata";"West Bengal";"Индия";1;1;1;0;0;0;0;1;1;1;0;"103.240.96.130";157;4;0;"node-103-240-96-130.alliancebroadband.in"
"72.10.160.90";13177;"TH";"";"";"Таиланд";1;1;1;0;0;0;0;1;1;1;0;"171.97.37.105";157;12;1;"ppp-171-97-37-105.revip8.asianet.co.th"
"72.10.160.90";7947;"PK";"Karachi";"Sindh";"Пакистан";1;1;1;0;0;0;0;1;0;1;0;"39.53.203.44";157;4;0;"39.53.203.44"
"67.43.236.18";17539;"AU";"Sydney";"New South Wales";"Австралия";1;1;1;0;0;0;0;1;1;1;0;"101.115.25.7";157;66;0;"101.115.25.7"
"62.33.53.248";3128;"RU";"Yakutsk";"Sakha";"Россия";1;0;1;0;0;0;0;0;0;0;1;"62.33.53.248";1149;2984;7061;"62.33.53.248"
"52.42.76.223";3128;"US";"Boardman";"Oregon";"США";1;0;1;0;0;0;0;1;0;0;0;"52.42.76.223";268;106;377;"ec2-52-42-76-223.us-west-2.compute.amazonaws.com"
"45.4.202.170";999;"EC";"Guayaquil";"Guayas";"Эквадор";1;0;1;0;0;0;0;0;0;0;0;"45.4.202.170";306;673;3528;"45.4.202.170"
"14.224.174.168";2059;"VN";"Ha Long";"Qung Ninh";"Вьетнам";1;0;1;0;0;0;0;0;0;0;0;"14.171.188.230";275;35;11;"14.171.188.230"
"14.224.165.146";3334;"VN";"Thi Bnh";"Thi Bnh Province";"Вьетнам";1;1;1;0;0;0;0;0;0;0;0;"113.163.1.100";276;40;13;"static.vnpt.vn"
"223.205.76.193";8080;"TH";"Bang Lamung";"Chon Buri";"Таиланд";1;0;1;0;0;0;0;1;1;0;0;"223.205.76.193";379;192;12;"223.205.76.193"
"223.205.67.166";8080;"TH";"Bang Lamung";"Chon Buri";"Таиланд";1;0;1;0;0;0;0;1;1;0;0;"223.205.67.166";379;251;1;"mx-ll-223.205.67-166.dynamic.3bb.co.th"
"223.204.39.137";8080;"TH";"Nakhon Pathom";"Nakhon Pathom";"Таиланд";1;0;1;0;0;0;0;1;1;0;0;"223.204.39.137";379;15;0;"223.204.39.137"
"218.1.218.28";8118;"CN";"Shanghai";"Shanghai";"Китай";1;0;1;0;0;0;0;0;0;0;0;"218.1.218.28";379;1928;3822;"218.1.218.28"
"213.24.238.111";3128;"RU";"";"";"Россия";1;1;1;0;0;0;0;0;1;0;0;"213.24.238.111";129;18894;138;"mail.50.kadastr.ru"
"212.33.205.55";3128;"IR";"";"";"Иран";1;0;1;0;0;0;0;0;0;0;0;"212.33.205.55";129;1030;1232;"212.33.205.55"
"211.34.78.37";8080;"KR";"Seongnam-si";"Gyeonggi-do";"Республика Корея";1;0;1;0;0;0;0;1;1;0;0;"211.34.78.37";261;1237;1898;"211.34.78.37"
"188.121.116.238";8085;"QA";"Doha";"Baladyat ad Dawah";"Катар";1;1;1;1;1;0;0;1;1;0;0;"156.244.41.109";112;14;0;"156.244.41.109"
"187.223.55.99";8080;"MX";"La Paz";"Baja California Sur";"Мексика";1;0;1;0;0;0;0;0;1;0;0;"187.223.55.99";262;93;0;"187.223.55.99"
"182.52.66.32";8080;"TH";"Mae Sai";"Chiang Rai";"Таиланд";1;0;1;0;0;0;0;1;1;0;0;"182.52.66.32";269;83;0;"node-d28.pool-182-52.dynamic.totinternet.net"
"182.52.25.157";8080;"TH";"Bangkok";"Bangkok";"Таиланд";1;0;1;0;0;0;0;1;1;0;0;"182.52.25.157";269;111;0;"182.52.25.157"
"180.180.92.255";8080;"TH";"Rayong";"Rayong";"Таиланд";1;0;1;0;0;0;0;0;0;0;0;"180.180.92.255";269;285;1;"node-idb.pool-180-180.dynamic.nt-isp.net"
"179.106.18.218";9090;"BR";"Patrocnio";"Minas Gerais";"Бразилия";1;0;1;0;0;0;0;0;1;0;0;"179.106.18.218";299;485;22;"179-106-18-218-dynamic.onnettelecom.com.br"
"175.141.188.105";8080;"MY";"Kuala Lumpur";"Kuala Lumpur";"Малайзия";1;0;1;0;0;0;0;1;1;0;0;"175.141.188.105";299;61;0;"175.141.188.105"
"171.7.65.80";8080;"TH";"Bangkok";"Bangkok";"Таиланд";1;0;1;0;0;0;0;1;1;0;0;"171.7.65.80";270;254;15;"171.7.65.80"
"171.7.54.99";8080;"TH";"Bangkok";"Bangkok";"Таиланд";1;0;1;0;0;0;0;0;0;0;0;"171.7.54.99";270;234;0;"171.7.54.99"
"171.6.168.77";8080;"TH";"Bangkok";"Bangkok";"Таиланд";1;0;1;0;0;0;0;1;1;0;0;"171.6.168.77";270;115;1;"mx-ll-171.6.168-77.dynamic.3bb.in.th"
"171.6.113.130";8080;"TH";"Bangkok";"Bangkok";"Таиланд";1;0;1;0;0;0;0;1;1;0;0;"171.6.113.130";270;256;0;"mx-ll-171.6.113-130.dynamic.3bb.in.th"
"171.6.29.156";8080;"TH";"Bangkok";"Bangkok";"Таиланд";1;0;1;0;0;0;0;0;0;0;0;"171.6.29.156";270;242;0;"mx-ll-171.6.29-156.dynamic.3bb.in.th"
"171.5.190.187";8080;"TH";"Bangkok";"Bangkok";"Таиланд";1;0;1;0;0;0;0;0;0;0;0;"171.5.190.187";270;67;0;"mx-ll-171.5.190-187.dynamic.3bb.in.th"
"171.4.64.54";8080;"TH";"Phrae";"Phrae";"Таиланд";1;0;1;0;0;0;0;1;1;0;0;"171.4.64.54";390;126;0;"mx-ll-171.4.64-54.dynamic.3bb.co.th"
"157.175.84.251";1080;"BH";"";"Southern Governorate";"Бахрейн";1;0;1;0;0;0;0;1;1;0;0;"157.175.84.251";299;7;34;"ec2-157-175-84-251.me-south-1.compute.amazonaws.com"
"147.93.69.171";3128;"BR";"So Paulo";"So Paulo";"Бразилия";1;0;1;0;0;0;0;1;1;0;0;"147.93.69.171";390;307;0;"srv704182.hstgr.cloud"
"134.236.100.82";8080;"TH";"Pattaya";"Chon Buri";"Таиланд";1;0;1;0;0;0;0;1;1;0;0;"134.236.100.82";271;76;0;"134.236.100.82"
"134.236.82.101";8080;"TH";"Pattaya";"Chon Buri";"Таиланд";1;0;1;0;0;0;0;1;1;0;0;"134.236.82.101";271;20;0;"134.236.82.101"
"134.236.58.35";8080;"TH";"Surin";"Surin";"Таиланд";1;0;1;0;0;0;0;1;1;0;0;"134.236.58.35";271;273;24;"134.236.58.35"
"134.35.14.89";8085;"YE";"Sanaa";"Amanat Alasimah";"Йемен";1;0;1;0;0;0;0;0;0;0;0;"134.35.14.89";390;13;0;"134.35.14.89"
"125.24.206.51";8080;"TH";"Bangkok";"Bangkok";"Таиланд";1;0;1;0;0;0;0;1;1;0;0;"125.24.206.51";271;127;0;"125.24.206.51"
"125.24.162.18";8080;"TH";"Bangkok";"Bangkok";"Таиланд";1;0;1;0;0;0;0;1;1;0;0;"125.24.162.18";271;183;0;"node-w0i.pool-125-24.dynamic.totinternet.net"
"124.217.100.235";8082;"PH";"Daet";"Province of Camarines Norte";"Филиппины";1;0;1;0;0;0;0;0;0;0;0;"139.135.81.170";391;75;8;"139.135.81.170"
"124.120.113.159";8080;"TH";"Bangkok";"Bangkok";"Таиланд";1;0;1;0;0;0;0;0;0;0;0;"124.120.113.159";271;120;0;"ppp-124-120-113-159.revip2.asianet.co.th"
"124.106.194.169";8081;"PH";"Manila";"Metro Manila";"Филиппины";1;0;1;0;0;0;0;0;0;0;0;"124.106.194.169";391;198;9;"124.106.194.169"
"124.13.226.89";8080;"MY";"Kuala Lumpur";"Kuala Lumpur";"Малайзия";1;0;1;0;0;0;0;0;0;0;0;"124.13.226.89";300;215;0;"124.13.226.89"
"123.112.210.138";9000;"CN";"Beijing";"Beijing";"Китай";1;0;1;0;0;0;0;0;0;0;0;"123.112.210.138";272;380;0;"123.112.210.138"
"118.173.207.140";8080;"TH";"Phuket";"Phuket";"Таиланд";1;0;1;0;0;0;0;0;0;0;0;"118.173.207.140";272;282;28;"118.173.207.140"
"118.173.175.37";8080;"TH";"Ko Pha Ngan";"Surat Thani";"Таиланд";1;0;1;0;0;0;0;0;0;0;0;"118.173.175.37";272;171;27;"node-ylh.pool-118-173.dynamic.nt-isp.net"
"116.172.66.186";12701;"CN";"";"";"Китай";1;1;1;0;0;0;0;0;0;0;0;"116.172.66.186";300;1049;7;"116.172.66.186"
"113.53.154.124";8080;"TH";"Bangkok";"Bangkok";"Таиланд";1;0;1;0;0;0;0;1;1;0;0;"113.53.154.124";272;221;2;"node-58c.pool-113-53.dynamic.totinternet.net"
"111.202.247.50";18888;"CN";"Beijing";"Beijing";"Китай";1;0;1;0;0;0;0;0;0;0;0;"111.202.247.50";272;1061;0;"111.202.247.50"
"110.43.221.121";7088;"CN";"Shanghai";"Shanghai";"Китай";1;0;1;0;0;0;0;0;0;0;0;"42.81.157.159";391;663;32;"42.81.157.159"
"109.107.14.110";8080;"PL";"czna";"Lower Silesia";"Польша";1;0;1;0;0;0;0;1;1;1;0;"109.107.14.110";136;63;0;"109107014110.gdansk.vectranet.pl"
"103.255.132.165";8085;"ID";"";"";"Индонезия";1;0;1;0;0;0;0;0;0;1;0;"103.255.132.165";273;841;520;"103-255-132-165.ihore.id"
"103.175.83.83";8082;"ID";"Banjarmasin";"South Kalimantan";"Индонезия";1;0;1;0;0;0;0;1;1;0;0;"180.254.128.36";273;796;354;"180.254.128.36"
"103.172.23.38";8080;"ID";"";"";"Индонезия";1;0;1;0;0;0;0;0;0;0;0;"103.172.23.38";273;99;0;"103.172.23.38"
"103.162.16.224";8080;"ID";"";"";"Индонезия";1;0;1;0;0;0;0;1;1;0;0;"103.162.16.224";273;19;0;"103.162.16.224"
"103.156.57.118";8080;"ID";"";"";"Индонезия";1;0;1;0;0;0;0;0;0;0;0;"103.156.57.118";273;555;2309;"103.156.57.118"
"103.144.146.12";8085;"ID";"";"";"Индонезия";1;0;1;0;0;0;0;1;1;0;0;"103.183.98.250";273;232;8;"103.183.98.250"
"103.141.150.147";8080;"ID";"";"";"Индонезия";1;0;1;0;0;0;0;1;1;0;0;"103.141.150.147";273;301;38;"103.141.150.147"
"103.120.76.86";8080;"ID";"";"Banten";"Индонезия";1;0;1;0;0;0;0;1;1;0;0;"103.120.76.86";273;311;18;"kotoknet.hacinet.com"
"103.81.64.89";8080;"ID";"";"";"Индонезия";1;0;1;0;0;0;0;1;1;0;0;"103.81.66.210";273;13;0;"103.81.66.210"
"103.74.67.168";8080;"AU";"Hervey Bay";"Queensland";"Австралия";1;0;1;0;0;0;0;0;0;0;0;"103.74.67.168";392;26;0;"103.74.67.168"
"102.218.195.185";8080;"ZA";"Centurion";"Gauteng";"ЮАР";1;0;1;0;0;0;0;0;0;0;0;"102.218.195.185";273;510;21;"102.218.195.185"
"102.218.67.252";8080;"ZA";"Cape Town";"Western Cape";"ЮАР";1;0;1;0;0;0;0;1;1;0;0;"102.218.67.252";273;89;0;"102.218.67.252"
"101.109.218.101";8080;"TH";"Bangkok";"Bangkok";"Таиланд";1;0;1;0;0;0;0;1;1;0;0;"101.109.218.101";273;275;19;"node-1751.pool-101-109.dynamic.nt-isp.net"
"101.109.85.189";8080;"TH";"Nakhon Pathom";"Nakhon Pathom";"Таиланд";1;0;1;0;0;0;0;1;1;0;0;"101.109.85.189";273;584;51;"node-gxp.pool-101-109.dynamic.totinternet.net"
"101.109.5.166";8080;"TH";"Pattaya";"Chon Buri";"Таиланд";1;0;1;0;0;0;0;1;1;0;0;"101.109.5.166";273;256;5;"node-146.pool-101-109.dynamic.totinternet.net"
"101.108.2.187";8080;"TH";"Bangkok";"Bangkok";"Таиланд";1;0;1;0;0;0;0;0;0;0;0;"101.108.2.187";273;93;0;"101.108.2.187"
"101.51.95.36";8080;"TH";"Bangkok";"Bangkok";"Таиланд";1;0;1;0;0;0;0;1;1;0;0;"101.51.95.36";273;69;0;"node-isk.pool-101-51.dynamic.totinternet.net"
"98.85.84.39";8888;"US";"Ashburn";"Virginia";"США";1;0;1;0;0;0;0;1;1;0;0;"98.85.84.39";273;54;0;"ec2-98-85-84-39.compute-1.amazonaws.com"
"94.136.191.241";8080;"IN";"Mumbai";"Maharashtra";"Индия";1;0;1;0;0;0;0;1;1;0;0;"94.136.191.241";273;150;28;"ip-241-191-136-94.static.contabo.net"
"93.190.138.107";46182;"NL";"Naaldwijk";"South Holland";"Нидерланды";1;1;1;0;0;0;0;0;0;0;0;"93.190.138.107";138;938;134;"93-190-138-107.hosted-by-worldstream.net"
"93.115.172.94";1080;"NL";"";"";"Нидерланды";1;1;1;0;1;0;0;0;0;0;0;"95.211.172.97";138;985;705;"95.211.172.97.adsl.inet-telecom.org"
"89.248.204.51";3128;"US";"Reston";"Virginia";"США";1;1;1;0;0;0;0;1;1;0;0;"15.204.129.35";138;334;4;"15.204.129.35"
"85.154.9.254";8080;"OM";"Salalah";"Dhofar";"Оман";1;0;1;0;0;0;0;0;0;0;0;"85.154.9.254";274;220;0;"85.154.9.254"
"79.210.198.163";3128;"DE";"Bonn";"North Rhine-Westphalia";"Германия";1;0;1;0;0;0;0;1;1;1;0;"79.210.198.163";138;121;20;"p4fd2c6a3.dip0.t-ipconnect.de"
"72.10.164.178";32351;"US";"Randolph";"Massachusetts";"США";1;1;1;0;0;0;0;1;1;0;0;"173.48.94.188";274;17;0;"pool-173-48-94-188.bstnma.fios.verizon.net"
"72.10.164.178";30613;"MX";"Puebla";"Mexico City";"Мексика";1;1;1;0;0;0;0;1;1;0;0;"187.251.241.118";274;17;0;"fixed-187-251-241-118.totalplay.net"
"72.10.164.178";28619;"EC";"Loja";"Loja";"Эквадор";1;1;1;0;0;0;0;0;0;0;0;"190.96.101.190";274;26;2;"190.96.101.190"
"72.10.164.178";25725;"VE";"Caracas";"Distrito Federal";"Венесуэла";1;1;1;0;0;0;0;1;1;0;0;"38.41.18.89";274;17;1;"89.18.41.38.dynamic.mds-telecom.net"
"72.10.164.178";24651;"AU";"Adelaide";"South Australia";"Австралия";1;1;1;0;0;0;0;0;0;1;0;"120.20.225.76";274;14;0;"120.20.225.76"
"72.10.164.178";23753;"HN";"";"Corts Department";"Гондурас";1;1;1;0;0;0;0;1;1;0;0;"181.78.44.18";274;14;0;"181.78.44.18"
"72.10.164.178";22619;"MX";"Hermosillo";"Sonora";"Мексика";1;1;1;0;0;0;0;1;1;0;0;"189.173.205.96";274;30;0;"dsl-189-173-205-96-dyn.prod-infinitum.com.mx"
"72.10.164.178";17935;"TH";"Pathum Thani";"Pathum Thani";"Таиланд";1;1;1;0;0;0;0;1;1;0;0;"49.228.166.156";274;17;0;"49-228-166-0.24.nat.tls1b-cgn02.myaisfibre.com"
"72.10.164.178";8167;"CO";"Bogot";"Bogota D.C.";"Колумбия";1;1;1;0;0;0;0;1;1;0;0;"186.84.88.112";274;14;0;"dynamic-ip-1868488112.cable.net.co"
"72.10.164.178";5827;"VE";"Barquisimeto";"Lara";"Венесуэла";1;1;1;0;0;0;0;1;1;0;0;"200.8.80.145";274;17;0;"200.8.80.145"
"72.10.164.178";3839;"SA";"Dammam";"Eastern Province";"Саудовская Аравия";1;1;1;0;0;0;0;1;1;0;0;"178.80.169.62";274;14;0;"178.80.169.62"
"72.10.160.172";24205;"MY";"Kuala Lumpur";"Kuala Lumpur";"Малайзия";1;1;1;0;0;0;0;0;0;1;0;"180.74.68.18";274;18;0;"180.74.68.18"
"72.10.160.171";32985;"EC";"Quito";"Pichincha";"Эквадор";1;1;1;0;0;1;0;1;1;0;0;"191.99.251.93";273;3;0;"cgnathfc-191-99-251-93.customer.claro.com.ec"
"72.10.160.171";27495;"CO";"Bogot";"Bogota D.C.";"Колумбия";1;1;1;0;0;0;0;0;0;0;0;"185.216.73.58";273;3;0;"185.216.73.58"
"72.10.160.171";20309;"PE";"";"";"Перу";1;1;1;0;0;0;0;0;0;0;0;"190.187.244.41";273;24;0;"190.187.244.41"
"72.10.160.171";17185;"PH";"Cebu City";"Province of Cebu";"Филиппины";1;1;1;0;0;0;0;0;0;0;0;"143.44.165.9";273;30;0;"143.44.165.9-rev.convergeict.com"
"72.10.160.171";12341;"US";"Wilmington";"North Carolina";"США";1;0;1;0;0;0;0;0;0;1;0;"173.93.101.216";273;46;2;"syn-173-093-101-216.res.spectrum.com"
"72.10.160.171";11833;"CO";"Bogot";"Bogota D.C.";"Колумбия";1;1;1;0;0;0;0;0;0;0;0;"190.26.35.245";273;3;0;"190.26.35.245"
"72.10.160.170";33033;"MY";"Kajang";"Selangor";"Малайзия";1;1;1;0;0;0;0;0;0;0;0;"183.171.98.212";273;15;0;"183.171.98.212"
"72.10.160.170";25419;"US";"Staten Island";"New York";"США";1;1;1;0;0;0;0;1;1;0;0;"108.46.186.145";273;22;0;"pool-108-46-186-145.nycmny.fios.verizon.net"
"72.10.160.170";22985;"TH";"Bangkok";"Bangkok";"Таиланд";1;1;1;0;0;0;0;1;1;0;0;"184.82.126.6";273;12;0;"184.82.126.6"
"72.10.160.170";22059;"BR";"So Paulo";"So Paulo";"Бразилия";1;1;1;0;0;0;0;0;0;0;0;"179.247.255.96";273;12;0;"179.247.255.96"
"72.10.160.170";19079;"AR";"San Juan Bautista";"Buenos Aires";"Аргентина";1;1;1;0;0;0;0;0;0;0;0;"186.39.72.127";273;32;1;"186-39-72-127.speedy.com.ar"
"72.10.160.170";17407;"BR";"So Carlos";"So Paulo";"Бразилия";1;1;1;0;0;0;0;1;1;0;0;"131.0.203.13";273;12;0;"131.0.203.13"
"72.10.160.170";16811;"MX";"Campeche";"Campeche";"Мексика";1;1;1;0;0;0;0;1;1;0;0;"189.174.43.79";273;12;0;"dsl-189-174-43-79-dyn.prod-infinitum.com.mx"
"72.10.160.170";15121;"KR";"Cheonan";"Chungcheongnam-do";"Республика Корея";1;1;1;0;0;0;0;0;0;0;0;"175.121.57.7";273;27;2;"175.121.57.7"
"72.10.160.170";15117;"KW";"Kuwait City";"Al Asimah";"Кувейт";1;1;1;0;0;0;0;1;1;0;0;"188.236.44.208";273;24;1;"188.236.44.208"
"72.10.160.170";12515;"CW";"";"";"Кюрасао";1;1;1;0;0;0;0;1;1;0;0;"200.26.214.205";273;12;0;"200.26.214.205"
"72.10.160.170";11255;"SG";"";"";"Сингапур";1;1;1;0;0;0;0;0;0;0;0;"103.252.201.17";273;54;1;"17-201-252-103.myrepublic.com.sg"
"72.10.160.170";10293;"EC";"Guayaquil";"Guayas";"Эквадор";1;1;1;0;0;0;0;1;1;0;0;"179.60.189.152";273;15;0;"179.60.189.152"
"72.10.160.170";9833;"TH";"Bangkok";"Bangkok";"Таиланд";1;1;1;0;0;0;0;1;1;0;0;"184.22.232.68";273;12;0;"184-22-232-0.24.nat.sila1-cgn02.myaisfibre.com"
"72.10.160.170";9645;"BN";"Bandar Seri Begawan";"Brunei-Muara District";"Бруней-Даруссалам";1;1;1;0;0;0;0;1;1;0;0;"119.160.162.190";273;15;0;"119.160.162.190"
"72.10.160.170";9287;"UY";"Montevideo";"Montevideo Department";"Уругвай";1;1;1;0;0;0;0;0;0;0;0;"167.58.156.41";273;15;0;"r167-58-156-41.dialup.adsl.anteldata.net.uy"
"72.10.160.170";6601;"QA";"Doha";"Baladyat ad Dawah";"Катар";1;1;1;0;0;0;0;1;1;0;0;"212.70.119.136";273;12;0;"212.70.119.136"
"72.10.160.170";4935;"PA";"Panama City";"Provincia de Panam";"Панама";1;0;1;0;0;0;0;1;1;0;0;"186.72.245.178";273;6;3;"186.72.245.178"
"72.10.160.170";3321;"HK";"Tsuen Wan";"Tsuen Wan District";"Гонконг";1;1;1;0;0;0;0;0;0;0;0;"183.178.144.184";273;12;0;"183.178.144.184"
"72.10.160.92";26651;"US";"Aurora";"Colorado";"США";1;1;1;0;0;0;0;0;0;0;0;"98.50.105.68";273;5;0;"98.50.105.68"
"72.10.160.92";10493;"ID";"Probolinggo";"East Java";"Индонезия";1;1;1;0;0;0;0;0;0;0;0;"110.137.72.133";273;22;0;"110.137.72.133"
"72.10.160.91";23761;"AR";"Santiago del Estero";"Santiago del Estero";"Аргентина";1;1;1;0;0;0;0;1;1;0;0;"190.31.176.232";273;22;0;"host232.190-31-176.telecom.net.ar"
"72.10.160.91";9393;"IN";"Coimbatore";"Tamil Nadu";"Индия";1;1;1;0;0;0;0;1;1;0;0;"49.47.217.183";273;12;0;"49.47.217.183"
"72.10.160.90";33233;"JP";"Yaizu";"Shizuoka";"Япония";1;1;1;0;0;0;0;0;0;0;0;"183.86.53.215";273;55;0;"vc215.net183086053.thn.ne.jp"
"72.10.160.90";32643;"IN";"Bhopal";"Madhya Pradesh";"Индия";1;1;1;0;0;0;0;1;1;0;0;"106.222.215.63";273;12;0;"106.222.215.63"
"72.10.160.90";30855;"SG";"";"";"Сингапур";1;1;1;0;0;0;0;1;1;0;0;"112.199.183.171";273;15;0;"112.199.183.171"
"72.10.160.90";29701;"AE";"Abu Dhabi";"Abu Dhabi";"ОАЭ";1;1;1;0;0;0;0;1;1;0;0;"92.99.23.187";273;15;0;"92.99.23.187"
"72.10.160.90";26591;"CO";"Bucaramanga";"Santander Department";"Колумбия";1;1;1;0;0;0;0;1;1;0;0;"181.55.20.44";273;30;0;"181.55.20.44"
"72.10.160.90";26527;"AR";"Buenos Aires";"Buenos Aires";"Аргентина";1;1;1;0;0;0;0;1;1;0;0;"200.126.232.245";273;12;0;"245-232-126-200.fibertel.com.ar"
"72.10.160.90";26123;"PY";"Asuncin";"Asuncin";"Парагвай";1;1;1;0;0;0;0;1;1;0;0;"181.123.19.196";273;15;0;"pool-196-19-123-181.telecel.com.py"
"72.10.160.90";25623;"FR";"Paris";"Paris";"Франция";1;1;1;0;0;0;0;1;1;0;0;"138.199.47.208";273;15;0;"unn-138-199-47-208.datapacket.com"
"72.10.160.90";25323;"TR";"Ankara";"Ankara";"Турция";1;1;1;0;0;0;0;1;1;0;0;"212.175.150.116";273;37;0;"212.175.150.116"
"72.10.160.90";25299;"US";"Fairfield";"Connecticut";"США";1;1;1;0;0;0;0;1;1;0;0;"47.18.162.123";273;46;0;"ool-2f12a27b.dyn.optonline.net"
"72.10.160.90";24915;"VN";"Hanoi";"Hanoi";"Вьетнам";1;1;1;0;0;0;0;1;0;0;0;"222.252.26.34";273;12;0;"222.252.26.34"
"72.10.160.90";22697;"VE";"Miranda";"Miranda";"Венесуэла";1;1;1;0;0;0;0;1;1;0;0;"181.208.199.25";273;15;0;"181.208.199.25"
"72.10.160.90";21267;"AR";"Larroque";"Entre Rios";"Аргентина";1;1;1;0;0;0;0;1;1;0;0;"181.209.90.188";273;15;0;"181.209.90.188"
"72.10.160.90";20519;"CA";"Toronto";"Ontario";"Канада";1;1;1;0;0;0;0;1;1;0;0;"99.231.25.0";273;12;0;"pool-99-231-25-0.cpe.net.cable.rogers.com"
"72.10.160.90";17539;"EC";"Milagro";"Guayas";"Эквадор";1;1;1;0;0;0;0;1;1;0;0;"181.78.194.87";273;24;2;"181.78.194.87"
"72.10.160.90";16159;"CO";"Ccuta";"Norte de Santander Department";"Колумбия";1;1;1;0;0;0;0;1;1;0;0;"181.50.104.63";273;22;0;"181.50.104.63"
"72.10.160.90";12869;"ID";"Jakarta";"Jakarta";"Индонезия";1;1;1;0;0;0;0;1;1;0;0;"139.0.128.122";273;12;0;"139.0.128.122"
"72.10.160.90";8845;"MX";"Cancn";"Quintana Roo";"Мексика";1;1;1;0;0;0;0;1;1;0;0;"189.174.150.205";273;15;0;"dsl-189-174-150-205-dyn.prod-infinitum.com.mx"
"72.10.160.90";8531;"US";"Shelbyville";"Indiana";"США";1;1;1;0;0;0;0;0;0;1;0;"38.86.78.207";273;15;0;"38.86.78.207"
"72.10.160.90";5547;"US";"Carmel";"Indiana";"США";1;0;1;0;0;0;0;0;0;1;0;"47.231.164.101";273;43;3;"syn-047-231-164-101.res.spectrum.com"
"72.10.160.90";5345;"AR";"Crdoba";"Cordoba";"Аргентина";1;1;1;0;0;0;0;1;1;0;0;"186.189.234.137";273;53;1;"customer-static-189-234-137.iplannetworks.net"
"72.10.160.90";3765;"TW";"Taipei";"Taipei City";"Тайвань";1;1;1;0;0;0;0;0;0;0;0;"61.71.39.86";273;12;0;"host-61-71-39-86.static.kbtelecom.net"
"72.10.160.90";2393;"CA";"Mississauga";"Ontario";"Канада";1;0;1;0;0;0;0;0;0;1;0;"99.245.12.234";273;22;0;"pool-99-245-12-234.cpe.net.cable.rogers.com"
"72.10.160.90";1647;"CA";"Whitby";"Ontario";"Канада";1;1;1;0;0;0;0;1;1;0;0;"70.53.86.214";273;15;0;"bras-base-wtbyon9412w-grc-13-70-53-86-214.dsl.bell.ca"
"67.43.236.20";32381;"PH";"Laoag";"Province of Ilocos Norte";"Филиппины";1;0;1;0;0;0;0;1;1;0;0;"143.44.132.4";292;15;0;"143.44.132.4"
"67.43.236.19";2795;"EC";"Cuenca";"Azuay";"Эквадор";1;1;1;0;0;0;0;1;1;0;0;"190.110.58.204";273;15;0;"190.110.58.204"
"67.43.236.18";30541;"CO";"Yumbo";"Valle del Cauca Department";"Колумбия";1;1;1;0;0;0;0;1;1;0;0;"190.108.77.124";273;30;0;"gpon-190.108.77.124-celsiainternet.com"
"67.43.236.18";29937;"PH";"Carmona";"Province of Cavite";"Филиппины";1;1;1;0;0;0;0;1;0;0;0;"180.190.135.116";273;22;0;"180.190.135.116"
"67.43.236.18";29151;"AE";"Sharjah";"Sharjah";"ОАЭ";1;1;1;0;0;0;0;0;0;0;0;"5.194.145.74";273;29;6;"5.194.145.74"
"67.43.236.18";25313;"MY";"Kuala Lumpur";"Kuala Lumpur";"Малайзия";1;1;1;0;0;0;0;0;0;0;0;"115.135.25.145";273;15;0;"115.135.25.145"
"67.43.236.18";20393;"BR";"Maca";"Rio de Janeiro";"Бразилия";1;1;1;0;0;0;0;1;1;0;0;"168.197.236.210";273;22;1;"168.197.236.210"
"67.43.236.18";18719;"US";"Lancaster";"Pennsylvania";"США";1;1;1;0;0;0;0;1;1;0;0;"73.101.98.228";273;15;0;"c-73-101-98-228.hsd1.pa.comcast.net"
"67.43.236.18";17485;"PH";"Cebu City";"Province of Cebu";"Филиппины";1;1;1;0;0;0;0;0;0;1;0;"112.208.67.91";273;4;1;"112.208.67.91.pldt.net"
"67.43.236.18";17257;"BD";"Dhaka";"Dhaka";"Бангладеш";1;1;1;0;0;1;0;1;1;0;0;"103.133.203.227";273;19;0;"103.133.203.227"
"67.43.236.18";12653;"BO";"Santa Cruz";"Santa Cruz Department";"Боливия";1;1;1;0;0;0;0;0;1;0;0;"189.28.73.91";273;15;1;"lpz-189-28-73-00091.tigo.bo"
"67.43.236.18";7063;"VE";"Caracas";"Distrito Federal";"Венесуэла";1;1;1;0;0;0;0;0;0;0;0;"190.94.198.83";273;28;0;"190.94.198.83"
"67.43.236.18";5817;"PY";"Itaugu";"Central Department";"Парагвай";1;1;1;0;0;0;0;1;1;0;0;"181.120.104.45";146;4;0;"181.120.104.45"
"67.43.236.18";5601;"DO";"Santo Domingo";"Nacional";"Доминиканская Республика";1;1;1;0;0;0;0;1;0;0;0;"190.166.80.146";273;30;1;"190.166.80.146"
"67.43.236.18";4939;"AR";"Boulogne Sur Mer";"Buenos Aires";"Аргентина";1;1;1;0;0;0;0;0;0;1;0;"66.60.8.213";273;22;0;"213-8-60-66.fibertel.com.ar"
"67.43.236.18";3881;"BR";"Rio Branco";"Acre";"Бразилия";1;1;1;0;0;0;0;0;0;0;0;"201.40.28.20";273;22;0;"201.40.28.20"
"67.43.236.18";3097;"US";"Owosso";"Michigan";"США";1;0;1;0;0;0;0;1;1;0;0;"24.180.68.102";273;30;0;"syn-024-180-068-102.res.spectrum.com"
"67.43.228.253";25627;"ID";"South Tangerang";"Banten";"Индонезия";1;0;1;0;0;1;0;1;1;0;0;"158.140.191.110";272;1;0;"host-158.140.191-110.myrepublic.co.id"
"67.43.228.252";32457;"GB";"Edinburgh";"Edinburgh";"Великобритания";1;1;1;0;0;1;0;1;1;0;0;"77.98.191.105";148;1;0;"sgyl-45-b2-v4wan-163722-cust104.vm6.cable.virginm.net"
"67.43.228.252";29603;"ID";"";"";"Индонезия";1;1;1;0;0;0;0;0;0;0;0;"182.253.75.194";272;1;0;"182.253.75.194"
"67.43.228.252";27795;"US";"Albuquerque";"New Mexico";"США";1;1;1;0;0;1;0;1;1;0;0;"98.50.123.45";272;1;0;"c-98-50-123-45.hsd1.co.comcast.net"
"67.43.228.252";27239;"PK";"Islamabad";"Islamabad";"Пакистан";1;1;1;0;0;0;0;0;0;0;0;"154.192.133.31";272;1;0;"154.192.133.31"
"67.43.228.252";27083;"BR";"Recife";"Pernambuco";"Бразилия";1;1;1;0;0;1;0;1;1;0;0;"186.247.42.126";272;1;0;"186-247-42-126.user3p.vtal.net.br"
"67.43.228.252";25627;"ID";"South Tangerang";"Banten";"Индонезия";1;0;1;0;0;0;0;0;0;0;0;"158.140.191.105";272;1;0;"158.140.191.105"
"67.43.228.252";24003;"PL";"Warsaw";"Mazovia";"Польша";1;1;1;0;0;1;0;1;1;0;0;"188.146.32.97";272;1;0;"188.146.32.97.mobile.internet.t-mobile.pl"
"67.43.228.252";23137;"MX";"Salamanca";"Guanajuato";"Мексика";1;1;1;0;0;1;0;1;1;0;0;"177.227.63.203";272;1;0;"customer-pue-63-203.megared.net.mx"
"67.43.228.252";21665;"GB";"London";"England";"Великобритания";1;1;1;0;0;1;0;1;1;0;0;"212.102.63.9";272;1;0;"unn-212-102-63-9.cdn77.com"
"67.43.228.252";21119;"PK";"Lahore";"Punjab";"Пакистан";1;1;1;0;0;0;0;0;0;0;0;"39.43.223.119";272;1;0;"39.43.223.119"
"67.43.228.252";18717;"PK";"Quetta";"Balochistan";"Пакистан";1;1;1;0;0;1;0;1;0;0;0;"39.38.66.36";272;1;0;"39.38.66.36"
"67.43.228.252";18589;"CR";"Puntarenas";"Puntarenas Province";"Коста-Рика";1;1;1;0;0;1;0;1;1;0;0;"201.207.29.209";272;1;0;"201.207.29.209"
"67.43.228.252";17355;"IN";"Mumbai";"Maharashtra";"Индия";1;1;1;0;0;1;0;1;1;0;0;"115.96.77.232";272;1;0;"77.96.115.232.hathway.com"
"67.43.228.252";15995;"ID";"Jakarta";"Jakarta";"Индонезия";1;1;1;0;0;0;0;0;0;0;0;"110.138.82.60";272;1;0;"110.138.82.60"
"67.43.228.252";13433;"KW";"Kuwait City";"Al Asimah";"Кувейт";1;1;1;0;0;0;0;0;0;1;0;"37.36.54.205";272;1;0;"37.36.54.205"
"67.43.228.252";12051;"CA";"Saskatoon";"Saskatchewan";"Канада";1;1;1;0;0;0;0;0;0;0;0;"207.195.12.117";273;1;0;"207-195-12-117.regn.hsdb.sasknet.sk.ca"
"67.43.228.252";11263;"VE";"Caracas";"Distrito Federal";"Венесуэла";1;1;1;0;0;0;0;1;1;0;0;"190.114.244.210";273;1;0;"190.114.244.210"
"67.43.228.252";9817;"IN";"Chennai";"Tamil Nadu";"Индия";1;1;1;0;0;0;0;0;0;1;0;"152.59.222.55";273;1;0;"152.59.222.55"
"67.43.228.252";8243;"VE";"";"";"Венесуэла";1;1;1;0;0;1;0;1;1;0;0;"190.72.248.26";149;1;0;"190-72-248-26.bto-03-p76.cantv.net"
"67.43.228.252";4739;"VE";"Caracas";"Distrito Federal";"Венесуэла";1;1;1;0;0;0;0;0;0;0;0;"186.93.147.122";149;1;0;"186-93-147-122.scr-03-p76.cantv.net"
"67.43.228.252";2349;"DO";"Santiago de los Caballeros";"Santiago Province";"Доминиканская Республика";1;1;1;0;0;1;0;1;1;0;0;"64.32.125.213";273;1;0;"213satb6.codetel.net.do"
"67.43.228.252";2347;"CO";"Mosquera";"Cundinamarca";"Колумбия";1;1;1;0;0;1;0;1;1;0;0;"190.145.240.57";273;1;0;"190.145.240.57"
"67.43.228.252";1141;"GT";"Guatemala City";"Guatemala";"Гватемала";1;1;1;0;0;0;0;1;1;0;0;"190.143.191.156";149;1;0;"190.143.191.156"
"67.43.228.251";25075;"ID";"Semarang";"Central Java";"Индонезия";1;1;1;0;0;0;0;0;0;0;0;"125.166.104.129";150;3;0;"125.166.104.129"
"67.43.228.251";24445;"US";"Grovetown";"Georgia";"США";1;0;1;0;0;0;0;0;0;1;0;"64.217.144.26";273;3;0;"64-217-144-26.lightspeed.tukrga.sbcglobal.net"
"67.43.228.251";14045;"IN";"";"";"Индия";1;1;1;0;0;0;0;0;0;0;0;"182.64.45.134";149;36;0;"182.64.45.134"
"67.43.228.251";9777;"PE";"Lima";"Lima Province";"Перу";1;1;1;0;0;0;0;0;0;0;0;"179.6.170.87";273;3;0;"179.6.170.87"
"67.43.228.250";32623;"TW";"New Taipei City";"New Taipei City";"Тайвань";1;1;1;0;0;0;0;0;0;0;0;"118.168.131.141";149;3;0;"118.168.131.141"
"67.43.228.250";32335;"TH";"Bangkok";"Bangkok";"Таиланд";1;1;1;0;0;0;0;1;1;0;0;"124.120.204.230";273;3;0;"ppp-124-120-204-230.revip2.asianet.co.th"
"67.43.228.250";31091;"KH";"";"";"Камбоджа";1;1;1;0;0;0;0;1;1;0;0;"111.67.101.219";150;17;0;"111.67.101.219"
"67.43.228.250";30557;"MX";"Mrida";"Yucatn";"Мексика";1;1;1;0;0;0;0;0;0;0;0;"189.176.63.110";149;6;0;"dsl-189-176-63-110-dyn.prod-infinitum.com.mx"
"67.43.228.250";30489;"BR";"Teresina";"Piau";"Бразилия";1;1;1;0;0;0;0;1;1;0;0;"177.37.179.180";149;3;0;"177.37.179.180"
"67.43.228.250";30307;"CO";"Roldanillo";"Valle del Cauca Department";"Колумбия";1;1;1;0;0;0;0;1;1;0;0;"45.230.33.196";150;17;0;"45.230.33.196"
"67.43.228.250";29205;"NP";"Kathmandu";"Bagmati Province";"Непал";1;1;1;0;0;0;0;0;0;0;0;"27.34.65.81";149;3;0;"27.34.65.81"
"67.43.228.250";29009;"IN";"Ludhiana";"Punjab";"Индия";1;1;1;0;0;0;0;1;1;0;0;"49.43.89.45";149;17;0;"49.43.89.45"
"67.43.228.250";27633;"VE";"Caracas";"Distrito Federal";"Венесуэла";1;1;1;0;0;0;0;1;1;0;0;"190.153.103.215";273;3;0;"215.103.153.190.net-uno.net"
"67.43.228.250";26285;"CO";"Pereira";"Risaralda Department";"Колумбия";1;1;1;0;0;0;0;1;1;0;0;"186.115.61.85";273;6;0;"186.115.61.85"
"67.43.228.250";26247;"IN";"Guwahati";"Assam";"Индия";1;1;1;0;0;0;0;0;0;0;0;"49.37.103.180";150;3;0;"49.37.103.180"
"67.43.228.250";26091;"VE";"Valencia";"Carabobo";"Венесуэла";1;1;1;0;0;0;0;0;0;0;0;"200.75.100.212";149;6;0;"200.75.100.212"
"67.43.228.250";25953;"US";"Miami";"Florida";"США";1;1;1;0;0;0;0;0;0;0;0;"73.85.214.50";149;3;0;"c-73-85-214-50.hsd1.fl.comcast.net"
"67.43.228.250";25685;"MX";"Puebla";"Mexico City";"Мексика";1;1;1;0;0;0;0;0;0;0;0;"187.251.246.253";149;3;0;"fixed-187-251-246-253.totalplay.net"
"67.43.228.250";25593;"PY";"Asuncin";"Asuncin";"Парагвай";1;1;1;0;0;0;0;0;0;0;0;"181.94.228.48";149;6;0;"181.94.228.48"
"67.43.228.250";25267;"PK";"Faisalabad";"Punjab";"Пакистан";1;1;1;0;0;0;0;0;0;0;0;"58.65.217.144";274;3;0;"58.65.217.144"
"67.43.228.250";23809;"PH";"Tuguegarao City";"Province of Cagayan";"Филиппины";1;1;1;0;0;0;0;0;0;0;0;"143.44.141.22";149;3;0;"143.44.141.22-rev.convergeict.com"
"67.43.228.250";23155;"ID";"Bekasi";"West Java";"Индонезия";1;1;1;0;0;0;0;1;1;0;0;"103.105.79.12";149;6;0;"host-103-105-79-12.garuda.net.id"
"67.43.228.250";22585;"MX";"Acapulco de Jurez";"Guerrero";"Мексика";1;1;1;0;0;0;0;1;1;0;0;"189.143.230.87";149;3;0;"dsl-189-143-230-87-dyn.prod-infinitum.com.mx"
"67.43.228.250";22321;"BR";"Passo Fundo";"Rio Grande do Sul";"Бразилия";1;1;1;0;0;0;0;0;0;0;0;"177.75.148.1";150;6;0;"177.75.148.1"
"67.43.228.250";21785;"PH";"Nasugbu";"Province of Batangas";"Филиппины";1;1;1;0;0;0;0;0;0;0;0;"158.62.3.146";149;3;0;"158.62.3.146"
"67.43.228.250";19421;"MX";"Chihuahua City";"Chihuahua";"Мексика";1;1;1;0;0;0;0;0;0;1;0;"200.92.182.126";150;3;0;"customer-chh-cgn-182-126.megared.net.mx"
"67.43.228.250";18273;"PK";"Lahore";"Punjab";"Пакистан";1;1;1;0;0;1;0;1;0;0;0;"139.135.32.115";274;3;0;"139.135.32.115"
"67.43.228.250";17013;"TW";"Kaohsiung";"Kaohsiung";"Тайвань";1;1;1;0;0;0;0;0;0;0;0;"180.218.97.141";149;3;0;"180.218.97.141"
"67.43.228.250";16765;"MX";"Quertaro City";"Quertaro";"Мексика";1;1;1;0;0;0;0;0;0;0;0;"187.194.204.121";149;3;0;"187.194.204.121"
"67.43.228.250";16363;"VE";"Porlamar";"Nueva Esparta";"Венесуэла";1;1;1;0;0;0;0;1;1;0;0;"190.142.132.40";150;14;0;"190.142.132.40"
"67.43.228.250";15455;"PH";"Tanza";"Province of Cavite";"Филиппины";1;1;1;0;0;0;0;0;0;0;0;"136.158.83.148";150;17;1;"148.83.158.136.convergeict.com"
"67.43.228.250";15317;"MX";"San Luis Potos City";"San Luis Potos";"Мексика";1;1;1;0;0;0;0;1;1;0;0;"201.152.211.191";149;14;1;"dsl-201-152-211-191-dyn.prod-infinitum.com.mx"
"67.43.228.250";15195;"CO";"Medelln";"Antioquia";"Колумбия";1;1;1;0;0;0;0;1;1;0;0;"190.145.177.28";149;6;0;"190.145.177.28"
"67.43.228.250";14515;"MX";"Ixtlahuacn de los Membrillos";"Jalisco";"Мексика";1;1;1;0;0;0;0;1;1;0;0;"189.192.48.157";150;3;0;"customer-gdl-cgn-48-157.megared.net.mx"
"67.43.228.250";13197;"AR";"Buenos Aires";"Buenos Aires F.D.";"Аргентина";1;1;1;0;0;0;0;0;0;0;0;"201.216.219.124";149;6;0;"201.216.219.124"
"67.43.228.250";12639;"AR";"Villa Jos Len Surez";"Buenos Aires";"Аргентина";1;1;1;0;0;0;0;0;0;0;0;"186.136.90.15";149;14;4;"15-90-136-186.fibertel.com.ar"
"67.43.228.250";10933;"IL";"Tel Aviv";"Tel Aviv";"Израиль";1;1;1;0;0;0;0;1;1;0;0;"176.228.216.197";150;6;0;"176-228-216-197.orange.net.il"
"67.43.228.250";9801;"BR";"Ribeiro das Neves";"Minas Gerais";"Бразилия";1;1;1;0;0;0;0;0;0;1;0;"170.245.197.102";149;6;0;"170-245-197-102.rnova.com.br"
"67.43.228.250";9613;"IN";"Nellore";"Andhra Pradesh";"Индия";1;1;1;0;0;0;0;0;0;1;0;"49.204.192.130";149;3;0;"49.204.192.130"
"67.43.228.250";9289;"MX";"Mrida";"Yucatn";"Мексика";1;1;1;0;0;0;0;1;1;0;0;"189.172.96.162";149;17;1;"189.172.96.162"
"67.43.228.250";8581;"BR";"So Paulo";"So Paulo";"Бразилия";1;1;1;0;0;0;0;0;0;0;0;"186.204.63.233";149;3;0;"bacc3fe9.virtua.com.br"
"67.43.228.250";7903;"VE";"Barquisimeto";"Lara";"Венесуэла";1;1;1;0;0;0;0;1;1;0;0;"190.142.45.90";149;37;0;"190.142.45.90"
"67.43.228.250";7109;"BR";"Aracaju";"Sergipe";"Бразилия";1;1;1;0;0;0;0;0;0;1;0;"187.104.212.247";148;6;0;"187.104.212.247"
"67.43.228.250";6273;"MM";"Yangon";"Yangon";"Мьянма (Бирма)";1;1;1;0;0;0;0;0;0;0;0;"38.51.129.140";148;21;0;"38-51-129.140.frontiir.com"
"67.43.228.250";5923;"IN";"Mumbai";"Maharashtra";"Индия";1;1;1;0;0;0;0;0;0;1;0;"115.98.234.234";148;3;0;"115.98.234.234"
"67.43.228.250";4271;"SV";"San Salvador";"San Salvador Department";"Сальвадор";1;1;1;0;0;0;0;1;1;0;0;"190.150.36.94";148;3;0;"190.150.36.94"
"67.43.228.250";4107;"ID";"Jakarta";"Jakarta";"Индонезия";1;1;1;0;0;0;0;0;0;0;0;"118.99.81.201";148;14;1;"118.99.81.201"
"67.43.228.250";1501;"ID";"Malang";"East Java";"Индонезия";1;1;1;0;0;0;0;0;0;0;0;"180.248.20.250";150;6;0;"180.248.20.250"
"59.47.238.4";8088;"CN";"";"";"Китай";1;0;1;0;0;0;0;0;0;1;0;"59.47.238.4";409;999;124;"4.238.47.59.broad.bx.ln.dynamic.163data.com.cn"
"58.136.38.53";8080;"TH";"Bangkok";"Bangkok";"Таиланд";1;0;1;0;0;0;0;1;1;0;0;"58.136.38.53";276;154;0;"58.136.38.53"
"58.136.4.124";8080;"TH";"Bangkok";"Bangkok";"Таиланд";1;0;1;0;0;0;0;0;0;1;0;"58.136.4.124";276;371;4;"58.136.4.124"
"58.136.4.97";8080;"TH";"Bangkok";"Bangkok";"Таиланд";1;0;1;0;0;0;0;0;0;0;0;"58.136.4.97";276;54;0;"58.136.4.97"
"58.8.93.230";8080;"TH";"Nonthaburi";"Nonthaburi";"Таиланд";1;0;1;0;0;0;0;1;1;0;0;"58.8.93.230";276;452;5;"58.8.93.230"
"57.129.81.201";999;"DE";"Frankfurt am Main";"Hesse";"Германия";1;1;1;0;0;0;0;0;1;0;0;"57.129.81.201";149;5536;75;"vps-394e8f0d.vps.ovh.net"
"54.155.127.16";8888;"IE";"Dublin";"Leinster";"Ирландия";1;0;1;0;0;1;0;1;1;1;0;"54.155.127.16";149;16562;45;"ec2-54-155-127-16.eu-west-1.compute.amazonaws.com"
"54.153.62.70";3128;"US";"San Jose";"California";"США";1;0;1;0;0;0;0;1;1;0;0;"54.153.62.70";276;273;27;"ec2-54-153-62-70.us-west-1.compute.amazonaws.com"
"52.53.225.197";3128;"US";"San Jose";"California";"США";1;0;1;0;0;0;0;1;1;0;0;"52.53.225.197";276;300;24;"ec2-52-53-225-197.us-west-1.compute.amazonaws.com"
"49.148.144.229";8082;"PH";"Iligan";"Province of Lanao del Norte";"Филиппины";1;0;1;0;0;0;0;0;0;0;0;"49.148.144.229";410;114;0;"dsl.49.148.144.229.pldt.net"
"49.49.144.89";8080;"TH";"Lopburi";"Lopburi";"Таиланд";1;0;1;0;0;0;0;1;1;0;0;"49.49.144.89";277;94;0;"mx-ll-49.49.144-89.dynamic.3bb.in.th"
"49.48.94.221";8081;"TH";"Nakhon Ratchasima";"Nakhon Ratchasima";"Таиланд";1;0;1;0;0;0;0;0;0;1;0;"49.48.94.221";277;34;131;"mx-ll-49.48.94-221.dynamic.3bb.in.th"
"49.48.50.211";8080;"TH";"Bang Lamung";"Chon Buri";"Таиланд";1;0;1;0;0;0;0;0;0;0;0;"49.48.50.211";277;238;21;"mx-ll-49.48.50-211.dynamic.3bb.in.th"
"49.48.47.41";8080;"TH";"Pattaya";"Chon Buri";"Таиланд";1;0;1;0;0;0;0;1;1;0;0;"49.48.47.41";277;220;4;"49.48.47.41"
"47.92.93.226";8888;"CN";"Beijing";"Beijing";"Китай";1;1;1;0;0;0;0;0;0;0;0;"47.92.93.226";277;457;122;"47.92.93.226"
"46.246.142.199";8080;"GR";"Athens";"Attica";"Греция";1;0;1;0;0;0;0;1;1;0;0;"46.246.142.199";150;396;0;"46.246.142.199.dsl.dyn.forthnet.gr"
"45.167.126.252";8080;"CO";"Popayn";"Cauca Department";"Колумбия";1;0;1;0;0;0;0;1;1;0;0;"45.167.126.252";277;487;3;"45.167.126.252"
"45.159.113.153";3128;"IR";"Tehran";"Tehran";"Иран";1;0;1;0;0;0;0;0;0;0;0;"45.159.113.153";150;127;0;"static.153.113.159.45.clients.irandns.com"
"45.79.3.16";3128;"US";"Richardson";"Texas";"США";1;0;1;0;0;0;0;1;1;0;0;"45.79.3.16";285;149;48;"45-79-3-16.ip.linodeusercontent.com"
"43.252.237.67";8085;"ID";"Tangerang";"Banten";"Индонезия";1;0;1;0;0;0;0;0;0;1;0;"43.252.237.67";285;824;531;"43.252.237.67"
"43.206.149.245";3128;"JP";"Tokyo";"Tokyo";"Япония";1;0;1;0;0;0;0;1;1;0;0;"43.206.149.245";285;286;3;"43.206.149.245"
"36.74.113.217";8080;"ID";"Sidoarjo";"East Java";"Индонезия";1;0;1;0;0;0;0;0;0;0;0;"36.74.125.230";420;275;21;"36.74.125.230"
"35.94.68.209";3128;"US";"Boardman";"Oregon";"США";1;0;1;0;0;0;0;1;1;0;0;"35.94.68.209";286;22;0;"ec2-35-94-68-209.us-west-2.compute.amazonaws.com"
"27.79.173.136";16000;"VN";"Hanoi";"Hanoi";"Вьетнам";1;1;1;0;0;0;0;0;0;0;0;"27.79.173.136";421;14;0;"localhost"
"27.79.131.239";16000;"VN";"Hanoi";"Hanoi";"Вьетнам";1;1;1;0;0;0;0;0;0;1;0;"27.79.131.239";421;141;1;"27.79.131.239"
"23.237.210.82";80;"US";"";"";"США";1;0;1;0;0;0;0;1;1;0;0;"23.237.210.82";289;6163;2096;"23.237.210.82"
"18.231.221.98";3128;"BR";"So Paulo";"So Paulo";"Бразилия";1;0;1;0;0;0;0;1;1;0;0;"18.231.221.98";289;290;23;"ec2-18-231-221-98.sa-east-1.compute.amazonaws.com"
"18.231.167.191";3128;"BR";"So Paulo";"So Paulo";"Бразилия";1;0;1;0;0;0;0;1;0;0;0;"18.231.167.191";289;299;22;"ec2-18-231-167-191.sa-east-1.compute.amazonaws.com"
"15.229.42.55";3128;"BR";"So Paulo";"So Paulo";"Бразилия";1;0;1;0;0;0;0;1;1;0;0;"15.229.42.55";289;249;23;"ec2-15-229-42-55.sa-east-1.compute.amazonaws.com"
"15.228.167.0";3128;"BR";"So Paulo";"So Paulo";"Бразилия";1;0;1;0;0;0;0;1;1;0;0;"15.228.167.0";289;129;27;"ec2-15-228-167-0.sa-east-1.compute.amazonaws.com"
"15.223.57.25";3128;"CA";"Montreal";"Quebec";"Канада";1;0;1;0;0;0;0;1;1;0;0;"15.223.57.25";152;301;25;"ec2-15-223-57-25.ca-central-1.compute.amazonaws.com"
"14.224.165.146";6697;"VN";"Hanoi";"Hanoi";"Вьетнам";1;1;1;0;0;0;0;0;0;0;0;"171.224.54.192";290;47;9;"171.224.54.192"
"14.224.165.146";3905;"VN";"Hanoi";"Hanoi";"Вьетнам";1;1;1;0;0;0;0;0;0;0;0;"14.247.16.104";290;32;2;"14.247.16.104"
"14.224.165.146";3870;"VN";"Ninh Bnh";"Ninh Bnh Province";"Вьетнам";1;1;1;0;0;0;0;0;0;0;0;"113.179.217.159";290;15;1;"113.179.217.159"
"14.224.165.146";2956;"VN";"Thanh Ha";"Thanh Ha Province";"Вьетнам";1;0;1;0;0;0;0;0;0;0;0;"113.181.220.114";290;41;4;"static.vnpt.vn"
"13.212.95.135";8000;"SG";"";"";"Сингапур";1;0;1;0;0;0;0;1;1;0;0;"13.212.95.135";290;1091;302;"ec2-13-212-95-135.ap-southeast-1.compute.amazonaws.com"
"13.208.240.10";3128;"JP";"Osaka";"Osaka";"Япония";1;0;1;0;0;0;0;0;1;0;0;"13.208.240.10";290;278;25;"ec2-13-208-240-10.ap-northeast-3.compute.amazonaws.com"
"13.208.161.97";3128;"JP";"Osaka";"Osaka";"Япония";1;0;1;0;0;0;0;1;1;0;0;"13.208.161.97";289;291;25;"ec2-13-208-161-97.ap-northeast-3.compute.amazonaws.com"
"13.57.249.61";3128;"US";"San Jose";"California";"США";1;1;1;0;0;0;0;0;1;0;0;"13.57.249.61";289;23;0;"ec2-13-57-249-61.us-west-1.compute.amazonaws.com"
"3.85.42.63";3128;"US";"Ashburn";"Virginia";"США";1;0;1;0;0;0;0;0;1;0;0;"98.83.146.33";154;3852;7490;"ec2-98-83-146-33.compute-1.amazonaws.com"
"3.75.195.206";8888;"DE";"Frankfurt am Main";"Hesse";"Германия";1;1;1;0;0;0;0;1;1;1;0;"3.75.195.206";154;11;0;"ec2-3-75-195-206.eu-central-1.compute.amazonaws.com"
"3.0.176.171";1080;"SG";"";"";"Сингапур";1;0;1;0;0;0;0;1;0;0;0;"3.0.176.171";289;215;0;"ec2-3-0-176-171.ap-southeast-1.compute.amazonaws.com"
"2.194.65.78";8080;"IT";"Milan";"Province of Milan";"Италия";1;0;1;0;0;0;0;1;1;1;0;"2.194.65.78";154;58;0;"2.194.65.78"
"1.180.87.146";22300;"CN";"";"";"Китай";1;0;1;0;0;0;0;0;0;0;0;"110.19.105.124";291;4889;273;"110.19.105.124"
"171.6.18.159";8080;"TH";"Bangkok";"Bangkok";"Таиланд";1;0;1;0;0;0;0;1;0;0;0;"171.6.18.159";381;234;20;"mx-ll-171.6.18-159.dynamic.3bb.in.th"
"171.4.16.75";8081;"TH";"Nakhon Ratchasima";"Nakhon Ratchasima";"Таиланд";1;0;1;0;0;0;0;1;1;1;0;"171.4.16.75";262;615;45;"mx-ll-171.4.16-75.dynamic.3bb.co.th"
"72.10.164.178";32735;"MX";"Ahome";"Sinaloa";"Мексика";1;1;1;0;0;0;0;0;1;0;0;"187.243.251.153";148;6;1;"187.243.251.153"
"72.10.164.178";32331;"VE";"";"";"Венесуэла";1;1;1;0;0;0;0;1;1;1;0;"38.172.59.28";148;6;1;"38.172.59.28"
"72.10.160.171";19489;"AR";"Ayacucho";"Buenos Aires";"Аргентина";1;1;1;0;0;0;0;1;1;1;0;"192.67.23.8";147;31;1;"192.67.23.8"
"72.10.160.170";24071;"PK";"";"";"Пакистан";1;1;1;0;0;0;0;1;0;1;0;"122.129.86.113";147;4;0;"122.129.86.113"
"72.10.160.170";23017;"CA";"Guelph";"Ontario";"Канада";1;1;1;0;0;0;0;1;1;1;0;"76.64.217.244";147;4;0;"bras-base-glphon2257w-grc-09-76-64-217-244.dsl.bell.ca"
"72.10.160.90";31801;"IN";"Bengaluru";"Karnataka";"Индия";1;1;1;0;0;1;0;1;1;1;0;"49.43.241.76";147;4;0;"49.43.241.76"
"72.10.160.90";26953;"AR";"La Plata";"Buenos Aires";"Аргентина";1;1;1;0;0;0;0;1;1;1;0;"190.16.215.172";147;4;0;"190.16.215.172"
"72.10.160.90";25999;"US";"Macon";"Georgia";"США";1;1;1;0;0;0;0;1;1;1;0;"70.177.19.88";147;4;0;"ip70-177-19-88.mc.at.cox.net"
"72.10.160.90";25935;"CA";"Pierrefonds";"Quebec";"Канада";1;1;1;0;0;0;0;1;1;1;0;"69.159.178.135";147;4;0;"bras-base-mtrlpq5405w-grc-37-69-159-178-135.dsl.bell.ca"
"72.10.160.90";23863;"AE";"Abu Dhabi";"Abu Dhabi";"ОАЭ";1;1;1;0;0;0;0;0;0;0;0;"31.215.252.74";147;4;0;"31.215.252.74"
"72.10.160.90";22537;"TW";"Kaohsiung";"Kaohsiung";"Тайвань";1;1;1;0;0;0;0;1;1;1;0;"39.1.28.225";147;4;0;"39.1.28.225"
"72.10.160.90";20955;"VE";"Caracas";"Distrito Federal";"Венесуэла";1;1;1;0;0;0;0;1;1;1;0;"190.6.47.200";147;4;0;"host-190-6-47-200.net-uno.net"
"72.10.160.90";12147;"MX";"Puebla";"Mexico City";"Мексика";1;1;1;0;0;1;0;1;1;1;0;"187.251.242.144";146;4;0;"187.251.242.144"
"72.10.160.90";8949;"BD";"";"";"Бангладеш";1;1;1;0;0;1;0;1;1;1;0;"103.181.181.245";146;4;0;"103.181.181.245"
"72.10.160.90";4463;"TW";"Taoyuan District";"Taoyuan";"Тайвань";1;1;1;0;0;0;0;1;1;1;0;"111.240.12.180";146;12;1;"111.240.12.180"
"72.10.160.90";2649;"IN";"Lucknow";"Uttar Pradesh";"Индия";1;1;1;0;0;0;0;1;1;1;0;"122.163.187.159";146;4;0;"abts-north-dynamic-159.187.163.122.airtelbroadband.in"
"67.43.236.18";1093;"US";"Tampa";"Florida";"США";1;0;1;0;0;0;0;1;1;1;0;"104.136.211.189";262;22;1;"syn-104-136-211-189.res.spectrum.com"
"67.43.228.251";3239;"AE";"Sharjah";"Sharjah";"ОАЭ";1;1;1;0;0;0;0;1;1;1;0;"5.107.62.92";146;3;1;"5.107.62.92"
"67.43.228.250";18173;"US";"Seattle";"Washington";"США";1;1;1;0;0;0;0;1;1;1;0;"191.96.37.103";146;6;1;"191.96.37.103"
"67.43.228.250";13785;"GT";"Guatemala City";"Guatemala";"Гватемала";1;1;1;0;0;0;0;1;1;1;0;"190.104.112.157";146;14;1;"190.104.112.157"
"67.43.228.250";7827;"PH";"Bacolod City";"Province of Negros Occidental";"Филиппины";1;1;1;0;0;0;0;1;0;0;0;"216.247.35.137";146;21;1;"216.247.35.137"
"49.48.45.168";8080;"TH";"Pattaya";"Chon Buri";"Таиланд";1;0;1;0;0;0;0;1;1;1;0;"49.48.45.168";262;255;2;"49.48.45.168"
"203.150.113.80";8080;"TH";"Bangkok";"Bangkok";"Таиланд";1;0;1;0;0;0;0;1;1;1;0;"203.150.113.80";291;42;104;"80.113.150.203.sta.inet.co.th"
"202.57.10.179";3128;"ID";"Gunung";"Jakarta";"Индонезия";1;0;1;0;0;0;0;0;0;0;0;"202.57.10.179";263;7227;19255;"202.57.10.179"
"202.12.245.139";8080;"JP";"Tokyo";"Tokyo";"Япония";1;0;1;0;0;0;0;0;0;0;0;"202.12.245.139";1366;1887;1297;"202.12.245.139"
"185.91.126.169";8080;"KZ";"";"";"Казахстан";1;0;1;0;0;0;0;0;0;0;0;"185.91.126.169";146;1936;1546;"185.91.126.169"
"176.239.38.131";8080;"TR";"Istanbul";"Istanbul";"Турция";1;0;1;0;0;0;0;1;1;1;0;"176.239.38.131";282;8;5;"176.239.38.131"
"171.4.19.168";8080;"TH";"Nakhon Ratchasima";"Nakhon Ratchasima";"Таиланд";1;0;1;0;0;0;0;1;1;1;0;"171.4.19.168";285;883;337;"171.4.19.168"
"158.160.91.206";3128;"RU";"Moscow";"Moscow";"Россия";1;0;1;0;0;0;0;1;1;1;1;"158.160.91.206";150;87;0;"158.160.91.206"
"157.175.152.241";1080;"BH";"";"Southern Governorate";"Бахрейн";1;0;1;0;0;0;0;1;1;1;1;"157.175.152.241";311;343;2022;"ec2-157-175-152-241.me-south-1.compute.amazonaws.com"
"157.66.2.146";8080;"ID";"";"";"Индонезия";1;0;1;0;0;0;0;1;1;1;0;"157.66.2.146";285;32;2;"157.66.2.146"
"124.217.105.64";8082;"PH";"Daet";"Province of Camarines Norte";"Филиппины";1;0;1;0;0;0;0;1;1;1;0;"139.135.81.163";312;64;166;"139.135.81.163"
"120.25.199.3";10001;"CN";"Shenzhen";"Guangdong";"Китай";1;0;1;0;0;0;0;0;0;1;1;"120.25.199.3";287;14088;8985;"120.25.199.3"
"103.144.90.122";8080;"ID";"Nganjuk";"East Java";"Индонезия";1;0;1;0;0;0;0;0;0;0;0;"202.154.45.10";289;99;220;"202.154.45.10"
"92.124.154.154";8080;"RU";"Omsk";"Omsk Oblast";"Россия";1;0;1;0;0;0;0;0;0;0;0;"92.124.154.154";156;36794;43534;"92.124.154.154"
"85.17.254.222";3128;"NL";"Amsterdam";"North Holland";"Нидерланды";1;0;1;0;0;0;0;1;1;1;1;"85.17.254.222";156;251;23;"222.254.17.85.in-addr.arpa"
"78.40.116.43";3128;"SE";"Tllberg";"Dalarna County";"Швеция";1;0;1;0;0;0;0;1;1;1;1;"78.40.116.43";157;345;34;"ferusquota"
"72.10.164.178";11311;"AE";"Abu Dhabi";"Abu Dhabi";"ОАЭ";1;1;1;0;0;0;0;1;1;1;0;"5.195.85.82";292;8;1;"5.195.85.82"
"72.10.164.178";3105;"PE";"Lima";"Lima Province";"Перу";1;1;1;0;0;1;0;1;1;0;0;"190.237.74.123";163;11;1;"190.237.74.123"
"72.10.160.171";4021;"MY";"Petaling Jaya";"Selangor";"Малайзия";1;1;1;0;0;0;0;1;1;1;0;"218.111.118.11";157;8;2;"218.111.118.11"
"72.10.160.170";31563;"CO";"Bogot";"Bogota D.C.";"Колумбия";1;1;1;0;0;0;0;1;1;1;0;"186.86.110.76";157;6;0;"dynamic-ip-1868611076.cable.net.co"
"72.10.160.170";11781;"VE";"Caracas";"Distrito Federal";"Венесуэла";1;1;1;0;0;0;0;1;1;1;0;"181.208.83.131";157;6;0;"181.208.83.131"
"72.10.160.90";10255;"DO";"Santo Domingo";"Nacional";"Доминиканская Республика";1;1;1;0;0;0;0;1;1;1;0;"200.88.67.194";157;6;0;"194santodomingord07.codetel.net.do"
"67.43.236.19";32131;"MY";"Johor Bahru";"Johor";"Малайзия";1;1;1;0;0;0;0;1;1;1;0;"60.53.33.28";157;4;0;"60.53.33.28"
"67.43.236.19";21687;"CL";"Hualpn";"Regin del Biobo";"Чили";1;1;1;0;0;0;0;1;1;1;0;"190.5.32.48";157;4;0;"190-5-32-48.static.pacificored.cl"
"67.43.236.19";11071;"SA";"Jeddah";"Mecca Region";"Саудовская Аравия";1;1;1;0;0;1;0;1;1;1;0;"64.137.224.183";157;4;0;"64.137.224.183"
"67.43.236.18";26861;"MX";"San Nicols de los Garza";"Nuevo Len";"Мексика";1;1;1;0;0;0;0;1;1;1;0;"189.203.90.244";157;4;0;"189.203.90.244"
"67.43.236.18";26451;"PE";"";"";"Перу";1;1;1;0;0;0;0;1;0;1;0;"190.108.85.101";157;4;0;"190.108.85.101"
"67.43.236.18";25977;"MX";"Ciudad Benito Jurez";"Nuevo Len";"Мексика";1;1;1;0;0;0;0;1;1;1;0;"189.218.8.81";157;4;0;"189.218.8.81-clientes-izzi.mx"
"67.43.236.18";23987;"MM";"Yangon";"Yangon";"Мьянма (Бирма)";1;1;1;0;0;0;0;0;1;1;0;"103.135.217.183";157;4;0;"103.135.217.183"
"67.43.236.18";16439;"PE";"Lima";"Lima Province";"Перу";1;1;1;0;0;0;0;1;1;1;0;"45.230.198.11";157;4;0;"45.230.198.11"
"67.43.236.18";14921;"ID";"Jakarta";"Jakarta";"Индонезия";1;1;1;0;0;0;0;1;1;1;0;"118.137.77.31";157;4;0;"fm-dyn-118-137-77-31.fast.net.id"
"67.43.236.18";9793;"TW";"Zhubei";"Hsinchu County";"Тайвань";1;1;1;0;0;0;0;1;1;1;0;"123.241.68.200";157;6;0;"123-241-68-200.best.dynamic.tbcnet.net.tw"
"67.43.236.18";7883;"MX";"Cuernavaca";"Morelos";"Мексика";1;1;1;0;0;0;0;1;1;1;0;"187.226.15.7";157;4;0;"dsl-187-226-15-7-dyn.prod-infinitum.com.mx"
"67.43.236.18";4753;"IN";"Ahmedabad";"Gujarat";"Индия";1;1;1;0;0;0;0;0;0;0;0;"103.249.233.157";157;4;0;"103.249.233.157"
"67.43.236.18";3921;"CA";"Calgary";"Alberta";"Канада";1;1;1;0;0;0;0;1;1;1;0;"209.89.250.189";157;4;0;"209.89.250.189"
"67.43.236.18";1917;"VE";"Turmero";"Aragua";"Венесуэла";1;1;1;0;0;0;0;1;1;1;0;"186.14.152.111";157;4;0;"186.14.152.111"
"65.109.210.247";1080;"FI";"Helsinki";"Uusimaa";"Финляндия";1;1;1;1;0;0;0;1;1;1;0;"65.109.210.247";155;479;271;"static.247.210.109.65.clients.your-server.de"
"62.33.91.10";3128;"RU";"";"";"Россия";1;0;1;0;0;0;0;0;0;0;0;"62.33.91.10";157;2562;13872;"62.33.91.10"
"59.110.215.11";1991;"CN";"Beijing";"Beijing";"Китай";1;1;1;0;0;0;0;0;0;1;1;"59.110.215.11";295;3807;21597;"59.110.215.11"
"51.79.207.21";8080;"SG";"";"";"Сингапур";1;0;1;0;0;0;0;0;0;0;0;"51.79.207.21";295;335;675;"vps-ddd39db6.vps.ovh.ca"
"47.243.92.199";3128;"HK";"";"";"Гонконг";1;0;1;0;0;0;1;0;0;0;0;"47.243.92.199";158;14820;12805;"47.243.92.199"
"47.236.224.32";8080;"SG";"";"";"Сингапур";1;1;1;0;0;0;0;1;1;1;0;"47.236.224.32";295;7766;18040;"47.236.224.32"
"47.101.148.107";7888;"CN";"Shanghai";"Shanghai";"Китай";1;0;1;0;0;0;0;0;0;0;0;"47.101.148.107";317;647;681;"47.101.148.107"
"47.91.104.88";3128;"AE";"Dubai";"Dubai";"ОАЭ";1;0;1;0;0;0;1;1;1;1;0;"47.91.104.88";295;12505;7249;"47.91.104.88"
"46.101.104.251";34763;"DE";"Frankfurt am Main";"Hesse";"Германия";1;1;1;0;0;0;0;0;0;0;0;"46.101.104.251";158;401;1;"46.101.104.251"
"46.8.230.73";3128;"FI";"Helsinki";"Uusimaa";"Финляндия";1;0;1;0;0;0;0;1;1;1;1;"46.8.230.73";158;43;0;"46.8.230.73"
"45.140.143.77";18080;"NL";"Amsterdam";"North Holland";"Нидерланды";1;1;1;0;1;0;0;1;1;1;0;"45.140.143.77";138;31953;220;"hosted-by.royalehosting.net"
"38.250.126.201";999;"CL";"Santiago";"Santiago Metropolitan";"Чили";1;0;1;0;0;0;0;1;1;1;0;"38.250.126.204";308;5;0;"38.250.126.204"
"37.152.180.38";3128;"IR";"";"";"Иран";1;0;1;0;0;0;0;0;0;1;0;"37.152.180.38";160;19;0;"37.152.180.38"
"35.178.175.7";3128;"GB";"London";"England";"Великобритания";1;0;1;0;0;0;0;1;0;1;1;"35.178.175.7";160;292;21;"ec2-35-178-175-7.eu-west-2.compute.amazonaws.com"
"27.79.167.54";16000;"VN";"Hanoi";"Hanoi";"Вьетнам";1;1;1;0;0;0;0;1;0;1;0;"27.79.167.54";309;7;0;"localhost"
"14.224.174.168";4683;"VN";"Ha Long";"Qung Ninh";"Вьетнам";1;1;1;0;0;0;0;0;0;0;0;"14.171.188.182";310;53;16;"14.171.188.182"
"14.224.174.168";4468;"VN";"Hanoi";"Hanoi";"Вьетнам";1;1;1;0;0;0;0;0;0;0;0;"14.181.108.173";328;39;11;"14.181.108.173"
"14.224.174.168";3712;"VN";"Ha Long";"Qung Ninh";"Вьетнам";1;1;1;0;0;0;0;0;0;0;0;"14.163.51.0";1286;47;15;"static.vnpt.vn"
"14.224.174.168";2697;"VN";"Hanoi";"Hanoi";"Вьетнам";1;1;1;0;0;0;0;0;0;0;0;"14.244.72.134";310;22;14;"static.vnpt.vn"
"14.224.174.168";2605;"VN";"Ha Long";"Qung Ninh";"Вьетнам";1;0;1;0;0;0;0;0;0;0;0;"14.171.189.14";310;50;19;"14.171.189.14"
"14.224.174.168";2396;"VN";"Hanoi";"Hanoi";"Вьетнам";1;1;1;0;0;0;0;0;0;0;0;"113.177.85.119";328;10;6;"113.177.85.119"
"14.224.165.146";6792;"VN";"Thi Bnh";"Thi Bnh Province";"Вьетнам";1;0;1;0;0;0;0;0;0;0;0;"117.5.160.248";310;9;3;"localhost"
"13.43.86.0";3128;"GB";"London";"England";"Великобритания";1;0;1;0;0;0;0;1;1;0;0;"13.43.86.0";167;294;1;"ec2-13-43-86-0.eu-west-2.compute.amazonaws.com"
"13.39.148.71";3128;"FR";"Paris";"Paris";"Франция";1;0;1;0;0;0;0;1;1;1;1;"13.39.148.71";167;292;25;"ec2-13-39-148-71.eu-west-3.compute.amazonaws.com"
"1.2.176.72";8080;"TH";"Bangkok";"Bangkok";"Таиланд";1;0;1;0;0;0;0;1;1;1;0;"1.2.176.72";312;239;18;"1.2.176.72"
"188.166.197.129";3128;"SG";"";"";"Сингапур";1;0;1;0;0;0;0;0;0;0;0;"165.22.103.75";274;11;203;"165.22.103.75"
"180.127.22.34";1080;"CN";"";"";"Китай";1;1;1;0;0;0;0;0;0;0;0;"180.127.22.34";405;295;2246;"180.127.22.34"
"51.91.76.186";8080;"FR";"";"";"Франция";1;0;1;0;0;0;0;0;0;0;0;"51.91.76.186";163;12172;46594;"vps-ad47d4c8.vps.ovh.net"
"49.48.80.36";8080;"TH";"Nakhon Ratchasima";"Nakhon Ratchasima";"Таиланд";1;0;1;0;0;0;0;1;0;0;0;"49.48.80.36";283;477;215;"49.48.80.36"
"67.43.228.251";22711;"PH";"Paranaque City";"Metro Manila";"Филиппины";1;1;1;0;0;0;0;1;1;1;0;"119.111.251.96";164;6;0;"119.111.251.96"
"46.246.238.90";8080;"GR";"Athens";"Attica";"Греция";1;0;1;0;0;0;0;0;0;0;0;"46.246.238.90";1172;802;5748;"46.246.238.90.dsl.dyn.forthnet.gr"
"49.48.138.51";8080;"TH";"Khon Kaen";"Khon Kaen";"Таиланд";1;0;1;0;0;0;0;0;0;0;0;"49.48.138.51";291;337;1423;"mx-ll-49.48.138-51.dynamic.3bb.co.th"
"67.43.236.19";17289;"AE";"Abu Dhabi";"Abu Dhabi";"ОАЭ";1;1;1;0;0;0;0;1;1;1;0;"5.194.152.27";160;3;9;"5.194.152.27"
"8.219.97.248";80;"SG";"";"";"Сингапур";1;0;1;0;0;0;0;0;0;0;0;"8.219.64.236";293;2312;7945;"8.219.64.236"
"5.102.109.41";999;"MX";"San Jos Iturbide";"Guanajuato";"Мексика";1;0;1;0;0;0;0;0;0;0;0;"5.102.109.41";288;1279;5056;"5.102.109.41"
"103.176.96.171";8082;"ID";"";"";"Индонезия";1;0;1;0;0;0;0;0;0;0;0;"103.176.96.172";285;48;150;"ip.172-96.g-fiber.co.id"
"54.250.76.76";3128;"JP";"Tokyo";"Tokyo";"Япония";1;0;1;0;0;0;0;1;1;1;1;"35.72.119.146";301;720;102;"ec2-35-72-119-146.ap-northeast-1.compute.amazonaws.com"
"49.49.41.185";8081;"TH";"Khon Kaen";"Khon Kaen";"Таиланд";1;0;1;0;0;0;0;1;1;1;0;"49.49.41.185";301;627;2202;"49.49.41.185"
"46.161.194.69";8085;"IQ";"";"";"Ирак";1;0;1;0;0;0;0;0;0;0;0;"46.161.194.69";169;15;261;"46.161.194.69"
"14.224.165.146";3714;"VN";"Hanoi";"Hanoi";"Вьетнам";1;1;1;0;0;0;0;0;0;0;0;"14.249.185.55";299;6;1;"static.vnpt.vn"
"1.2.176.131";8080;"TH";"Bangkok";"Bangkok";"Таиланд";1;0;1;0;0;0;0;1;1;1;0;"1.2.176.131";299;221;361;"1.2.176.131"
"198.145.118.54";8080;"TR";"";"";"Турция";1;0;1;0;0;0;0;1;0;0;0;"198.145.118.54";1224;31;399;"198.145.118.54"
"91.200.163.190";8088;"RU";"";"";"Россия";1;0;1;0;0;0;0;0;1;0;0;"91.200.161.250";3149;661;3411;"91.200.161.250"
"187.251.224.167";8081;"MX";"Len";"Guanajuato";"Мексика";1;0;1;0;0;0;0;0;0;0;0;"187.251.224.167";288;239;1792;"fixed-187-251-224-167.totalplay.net"
"192.9.248.0";21000;"US";"San Jose";"California";"США";1;1;1;0;0;0;0;0;0;0;0;"192.9.248.0";280;973;2030;"192.9.248.0"
"72.10.160.90";2555;"TZ";"Dar es Salaam";"Dar es Salaam Region";"Танзания";1;1;1;0;0;1;0;1;1;1;0;"154.72.75.82";156;3;7;"154.72.75.82"
"157.20.252.211";3126;"ID";"Tanjung Pinang";"Riau Islands";"Индонезия";1;0;1;0;0;1;0;1;1;1;0;"157.20.252.211";281;1260;1606;"157.20.252.211"
"45.6.38.24";8080;"BR";"Campina Grande";"Paraba";"Бразилия";1;0;1;0;0;0;0;0;0;0;0;"45.6.38.24";1365;121;1142;"45-6-38-24.pjmfibra.com.br"
"36.94.7.82";8080;"ID";"Jakarta";"Jakarta";"Индонезия";1;0;1;0;0;0;0;0;0;0;0;"36.94.7.82";291;459;1658;"36.94.7.82"
"178.130.68.215";8080;"YE";"";"";"Йемен";1;0;1;0;0;0;0;1;0;0;0;"178.130.123.249";411;36;5;"178.130.123.249"
"124.107.71.252";8082;"PH";"Iloilo City";"Province of Iloilo";"Филиппины";1;0;1;0;0;0;0;0;0;0;0;"112.209.51.130";397;26;194;"112.209.51.130"
"103.169.225.35";8080;"ID";"Jakarta";"Jakarta";"Индонезия";1;0;1;0;0;0;0;1;1;1;0;"114.10.41.105";282;292;599;"114.10.41.105"
"89.213.106.253";999;"MX";"Doctor Mora";"Guanajuato";"Мексика";1;0;1;0;0;0;0;0;0;0;0;"89.213.106.253";1325;1067;4852;"89.213.106.253"
"72.10.160.173";29145;"US";"Zephyrhills";"Florida";"США";1;0;1;0;0;0;0;0;0;1;0;"16.98.10.14";282;7;0;"syn-016-098-010-014.res.spectrum.com"
"72.10.160.170";32803;"BR";"Bom Jesus do Itabapoana";"Rio de Janeiro";"Бразилия";1;1;1;0;0;0;0;0;0;0;0;"170.238.191.255";156;3;5;"170.238.191.255"
"72.10.160.91";4821;"AE";"Sharjah";"Sharjah";"ОАЭ";1;1;1;0;0;0;0;1;1;1;0;"5.107.43.155";153;6;0;"5.107.43.155"
"67.43.228.250";10033;"KW";"Kuwait City";"Al Asimah";"Кувейт";1;1;1;0;0;0;0;1;1;1;0;"37.231.252.1";158;25;6;"37.231.252.1"
"72.10.164.178";32531;"ID";"Pekanbaru";"Riau";"Индонезия";1;1;1;0;0;0;0;1;1;1;0;"125.165.104.181";168;10;20;"125.165.104.181"
"3.81.207.174";8080;"DE";"";"";"Германия";1;0;1;0;0;0;0;0;0;0;1;"185.220.100.240";304;22;309;"tor-exit-13.zbau.f3netze.de"
"203.150.128.20";8080;"TH";"";"";"Таиланд";1;0;1;0;0;0;0;0;0;0;0;"203.150.128.20";275;115;413;"203.150.128.20"
"182.253.109.183";8080;"ID";"";"";"Индонезия";1;0;1;0;0;0;0;1;1;1;0;"182.253.109.183";283;304;1268;"182.253.109.183"
"175.193.139.141";8888;"KR";"Yongsan-gu";"Seoul";"Республика Корея";1;0;1;0;0;0;0;1;1;1;0;"175.193.139.141";283;321;879;"175.193.139.141"
"154.212.139.211";3128;"TH";"Pak Kret";"Nonthaburi";"Таиланд";1;1;1;0;0;0;0;1;1;1;1;"154.212.139.211";269;329;1083;"154.212.139.211"
"112.74.173.47";8837;"CN";"Shenzhen";"Guangdong";"Китай";1;0;1;0;0;0;0;0;0;0;0;"112.74.173.47";270;5374;5768;"112.74.173.47"
"37.220.82.128";3128;"PL";"Warsaw";"Mazovia";"Польша";1;0;1;0;0;0;0;1;1;1;1;"37.220.82.128";158;606;1491;"37.220.82.128"
"103.161.195.130";8082;"ID";"";"";"Индонезия";1;0;1;0;0;0;0;1;1;1;0;"103.161.195.130";266;69;56;"103.161.195.130"
"180.127.205.140";1080;"CN";"";"";"Китай";1;1;1;0;0;0;0;0;0;0;0;"180.127.205.140";353;437;4187;"180.127.205.140"
"91.107.159.236";1080;"DE";"Nuremberg";"Bavaria";"Германия";1;1;1;1;1;0;0;1;1;1;0;"91.107.159.236";119;491;28;"static.236.159.107.91.clients.your-server.de"
"72.10.160.92";27433;"ID";"Jakarta";"Jakarta";"Индонезия";1;1;1;0;0;0;0;1;1;1;0;"104.28.245.128";246;30;0;"104.28.245.128"
"67.43.228.251";3511;"BO";"Cochabamba";"Departamento de Cochabamba";"Боливия";1;1;1;0;0;0;0;1;1;1;0;"181.115.167.133";159;3;0;"181.115.167.133"
"223.206.48.175";8080;"TH";"Bang Lamung";"Chon Buri";"Таиланд";1;0;1;0;0;0;0;1;1;1;0;"223.206.48.175";266;190;23;"mx-ll-223.206.48-175.dynamic.3bb.in.th"
"223.205.75.24";8080;"TH";"Bang Lamung";"Chon Buri";"Таиланд";1;0;1;0;0;0;0;1;1;1;0;"223.205.75.24";266;122;3;"mx-ll-223.205.75-24.dynamic.3bb.in.th"
"223.205.31.113";8081;"TH";"Bang Lamung";"Chon Buri";"Таиланд";1;0;1;0;0;0;0;1;1;1;0;"223.205.31.113";266;102;2;"mx-ll-223.205.31-113.dynamic.3bb.in.th"
"72.10.164.178";30211;"MX";"Veracruz";"Veracruz";"Мексика";1;1;1;0;0;0;0;1;0;0;0;"201.105.48.136";152;26;1;"dup-201-105-48-136.prod-dial.com.mx"
"72.10.160.170";21493;"US";"Long Beach";"California";"США";1;1;1;0;0;0;0;1;1;1;0;"47.176.203.26";152;24;1;"47.176.203.26"
"72.10.160.170";18573;"PE";"Lima";"Lima Province";"Перу";1;1;1;0;0;0;0;1;0;1;0;"38.25.25.89";152;9;1;"38.25.25.89"
"49.48.115.131";8081;"TH";"Khon Kaen";"Khon Kaen";"Таиланд";1;0;1;0;0;1;0;1;1;1;0;"49.48.115.131";270;204;3;"49.48.115.131"
"190.171.161.62";8080;"CL";"Santiago";"Santiago Metropolitan";"Чили";1;0;1;0;0;0;0;0;0;0;0;"190.171.161.62";373;887;4349;"190.171.161.62"
"68.183.211.118";2268;"DE";"Frankfurt am Main";"Hesse";"Германия";1;0;1;0;0;0;0;1;1;1;0;"104.28.229.13";145;4;0;"104.28.229.13"
"67.43.228.250";26523;"PE";"Lima";"Lima Province";"Перу";1;1;1;0;0;0;0;1;1;1;0;"129.222.182.66";145;5;6;"customer.limaper1.pop.starlinkisp.net"
"54.222.174.194";80;"CN";"Beijing";"Beijing";"Китай";1;0;1;0;0;0;0;0;0;0;0;"52.80.11.51";1257;900;409;"ec2-52-80-11-51.cn-north-1.compute.amazonaws.com.cn"
"49.48.99.10";8080;"TH";"Khon Kaen";"Khon Kaen";"Таиланд";1;0;1;0;0;0;0;1;1;1;0;"49.48.99.10";269;9;1;"49.48.99.10"
"114.132.200.38";8080;"CN";"Guangzhou";"Guangdong";"Китай";1;0;1;0;0;0;0;0;0;0;0;"114.132.200.38";310;1132;2390;"114.132.200.38"
"72.10.160.92";15569;"TH";"Pattani";"Pattani";"Таиланд";1;1;1;0;0;0;0;1;1;1;0;"180.180.149.208";158;2;0;"node-tlc.pool-180-180.dynamic.totinternet.net"
"68.183.211.118";2125;"DE";"Frankfurt am Main";"Hesse";"Германия";1;1;1;0;0;0;0;1;0;1;0;"104.28.229.15";158;4;0;"104.28.229.15"
"43.130.73.8";8080;"US";"Ashburn";"Virginia";"США";1;0;1;0;0;0;0;0;0;0;0;"43.130.73.8";1195;304;3066;"43.130.73.8"
"36.83.54.229";3128;"ID";"";"";"Индонезия";1;1;1;0;0;0;0;0;0;0;0;"36.83.54.229";402;615;511;"36.83.54.229"
"72.10.160.94";21655;"AR";"Pergamino";"Buenos Aires";"Аргентина";1;1;1;0;0;0;0;1;1;1;0;"190.245.57.162";160;17;0;"190.245.57.162"
"72.10.160.92";24149;"MY";"Bukit Mertajam";"Penang";"Малайзия";1;1;1;0;0;0;0;1;1;1;0;"180.75.47.164";151;14;3;"180.75.47.164"
"67.43.236.22";28865;"AR";"Tandil";"Buenos Aires";"Аргентина";1;1;1;0;0;0;0;1;1;0;0;"200.114.218.2";164;2;0;"2-218-114-200.fibertel.com.ar"
"67.43.236.21";15087;"AR";"Rosario";"Santa Fe";"Аргентина";1;1;1;0;0;0;0;1;1;1;0;"186.158.145.9";146;13;0;"186.158.145.9"
"67.43.228.254";30193;"UY";"Montevideo";"Montevideo Department";"Уругвай";1;1;1;0;0;0;0;1;1;1;0;"167.60.83.148";277;2;0;"r167-60-83-148.dialup.adsl.anteldata.net.uy"
"223.206.66.82";8080;"TH";"Ko Samui";"Surat Thani";"Таиланд";1;0;1;0;0;0;0;1;1;1;0;"223.206.66.82";249;279;1;"223.206.66.82"
"223.206.48.161";8080;"TH";"Bang Lamung";"Chon Buri";"Таиланд";1;0;1;0;0;0;0;1;1;1;0;"223.206.48.161";280;446;6;"mx-ll-223.206.48-161.dynamic.3bb.co.th"
"223.205.73.134";8080;"TH";"Bang Lamung";"Chon Buri";"Таиланд";1;0;1;0;0;0;0;1;1;0;0;"223.205.73.134";249;8;0;"mx-ll-223.205.73-134.dynamic.3bb.co.th"
"223.204.64.91";8080;"TH";"Chiang Mai";"Chiang Mai";"Таиланд";1;0;1;0;0;0;0;1;1;1;0;"223.204.64.91";280;208;1;"mx-ll-223.204.64-91.dynamic.3bb.in.th"
"223.204.54.178";8080;"TH";"Nakhon Ratchasima";"Nakhon Ratchasima";"Таиланд";1;0;1;0;0;0;0;1;1;1;0;"223.204.54.178";249;214;10;"223.204.54.178"
"191.81.235.146";8080;"AR";"Mendoza";"Mendoza";"Аргентина";1;0;1;0;0;0;0;1;1;1;0;"191.81.236.75";366;146;231;"191-81-236-75.speedy.com.ar"
"189.240.60.162";9090;"MX";"Mexico City";"Mexico City";"Мексика";1;1;1;0;0;0;0;0;0;0;0;"189.240.60.168";250;499;41;"customer-189-240-60-168.uninet-ide.com.mx"
"184.82.138.2";8081;"TH";"Pattaya";"Chon Buri";"Таиланд";1;0;1;0;0;0;0;1;1;1;0;"184.82.138.2";281;449;0;"184-82-138-0.24.public.pyof-mser.myaisfibre.com"
"180.180.19.124";8080;"TH";"Phra Nakhon Si Ayutthaya";"Phra Nakhon Si Ayutthaya";"Таиланд";1;0;1;0;0;0;0;1;1;1;0;"180.180.19.124";281;227;1;"180.180.19.124"
"171.6.1.238";8080;"TH";"Bangkok";"Bangkok";"Таиланд";1;0;1;0;0;0;0;1;1;1;0;"171.6.1.238";242;241;2;"mx-ll-171.6.1-238.dynamic.3bb.co.th"
"160.19.19.114";8080;"ID";"";"";"Индонезия";1;0;1;0;0;0;0;0;0;0;0;"160.19.19.114";282;781;216;"160.19.19.114"
"155.93.182.198";3128;"ZA";"Johannesburg";"Gauteng";"ЮАР";1;1;1;0;0;0;0;1;1;1;0;"155.93.182.198";282;1039;546;"uati-cust.coolideas.co.za"
"125.167.191.61";8080;"ID";"Ubud";"Bali";"Индонезия";1;0;1;0;0;0;0;1;1;1;0;"125.167.191.61";397;29;0;"125.167.191.61"
"118.173.88.111";8080;"TH";"Bangkok";"Bangkok";"Таиланд";1;0;1;0;0;0;0;1;1;1;0;"118.173.88.111";282;249;0;"118.173.88.111"
"118.172.195.75";8080;"TH";"Salaya";"Nakhon Pathom";"Таиланд";1;0;1;0;0;0;0;1;0;1;0;"110.164.197.84";282;128;3;"mx-ll-110.164.197-84.static.3bb.co.th"
"103.182.79.137";8085;"ID";"Surabaya";"East Java";"Индонезия";1;0;1;0;0;0;0;1;1;0;0;"103.182.79.137";283;738;143;"103.182.79.137"
"103.106.219.201";8080;"ID";"Pasuruan";"East Java";"Индонезия";1;0;1;0;0;0;0;1;1;1;0;"103.106.219.201";283;377;41;"103.106.219.201"
"101.108.205.55";8080;"TH";"Bangkok";"Bangkok";"Таиланд";1;0;1;0;0;0;0;1;1;1;0;"101.108.205.55";283;28;0;"node-14jb.pool-101-108.dynamic.nt-isp.net"
"89.189.78.239";8080;"YE";"Sanaa";"Amanat Alasimah";"Йемен";1;0;1;0;0;0;0;1;1;0;0;"89.189.78.240";398;9;0;"adsl-89-189-78-240.dynamic.yemennet.ye"
"72.10.164.178";32113;"US";"";"Washington";"США";1;1;1;0;0;0;0;0;0;0;0;"52.156.115.64";158;54;4;"52.156.115.64"
"72.10.164.178";30449;"DE";"Dormagen";"North Rhine-Westphalia";"Германия";1;1;1;0;0;0;0;0;0;0;0;"92.117.30.23";158;8;0;"i5c751e17.versanet.de"
"72.10.164.178";25819;"CL";"Santiago";"Santiago Metropolitan";"Чили";1;1;1;0;0;0;0;1;1;0;0;"186.104.132.9";158;8;0;"186.104.132.9"
"72.10.164.178";23871;"AZ";"Baku";"Baku City";"Азербайджан";1;1;1;0;0;0;0;1;0;0;0;"185.146.112.31";283;11;0;"nat-pool-185.146.112.31.katv1.net"
"72.10.164.178";23335;"TW";"Tainan City";"Tainan";"Тайвань";1;1;1;0;0;0;0;1;0;0;0;"114.39.155.137";158;11;0;"114.39.155.137"
"72.10.164.178";23033;"BO";"Santa Cruz";"Santa Cruz Department";"Боливия";1;1;1;0;0;0;0;1;1;0;0;"181.41.144.19";158;8;0;"scz-181-41-144-00019.tigo.bo"
"72.10.164.178";19719;"BR";"Catanduva";"So Paulo";"Бразилия";1;1;1;0;0;0;0;1;1;0;0;"177.137.146.230";158;20;0;"177.137.146.230"
"72.10.164.178";19005;"IN";"Kolkata";"West Bengal";"Индия";1;1;1;0;0;0;0;1;0;0;0;"115.187.58.180";283;11;0;"115.187.58.180"
"72.10.164.178";18331;"SA";"Riyadh";"Riyadh Region";"Саудовская Аравия";1;1;1;0;0;0;0;0;0;0;0;"77.31.156.165";158;11;0;"77.31.156.165"
"72.10.164.178";17209;"BO";"Cochabamba";"Departamento de Cochabamba";"Боливия";1;1;1;0;0;0;0;0;0;0;0;"189.28.91.89";282;26;1;"189.28.91.89"
"72.10.164.178";16545;"PK";"Karachi";"Sindh";"Пакистан";1;1;1;0;0;0;0;1;0;0;0;"39.51.106.253";282;8;0;"39.51.106.253"
"72.10.164.178";16175;"NP";"";"";"Непал";1;1;1;0;0;0;0;0;0;0;0;"103.177.52.252";282;11;0;"103.177.52.252"
"72.10.164.178";14277;"TW";"Taoyuan District";"Taoyuan";"Тайвань";1;1;1;0;0;0;0;1;0;0;0;"114.37.21.45";282;11;0;"114.37.21.45"
"72.10.164.178";12233;"VE";"Caracas";"Distrito Federal";"Венесуэла";1;1;1;0;0;0;0;0;0;0;0;"190.207.58.49";158;23;0;"190-207-58-49.lms-01-p76.cantv.net"
"72.10.164.178";10543;"AR";"Santa Fe";"Santa Fe";"Аргентина";1;1;1;0;0;0;0;1;1;0;0;"190.3.50.178";158;8;0;"190.3.50.178"
"72.10.164.178";7377;"ID";"Bandung";"West Java";"Индонезия";1;0;1;0;0;0;0;1;0;0;0;"125.164.25.16";157;20;1;"125.164.25.16"
"72.10.164.178";4737;"ID";"Malang";"East Java";"Индонезия";1;1;1;0;0;0;0;1;0;0;0;"103.189.201.230";157;39;2;"103.189.201.230"
"72.10.164.178";4355;"TW";"Kaohsiung";"Kaohsiung";"Тайвань";1;1;1;0;0;0;0;0;0;0;0;"218.173.21.103";157;11;0;"218.173.21.103"
"72.10.164.178";1779;"VN";"Ho Chi Minh City";"Ho Chi Minh";"Вьетнам";1;0;1;0;0;0;0;0;0;0;0;"222.253.44.134";157;11;0;"static.vnpt.vn"
"72.10.160.171";27683;"CA";"Winnipeg";"Manitoba";"Канада";1;0;1;0;0;0;0;1;1;1;0;"50.72.119.164";282;8;0;"s01068c763f883b90.wp.shawcable.net"
"72.10.160.171";27395;"CU";"Havana";"Havana";"Куба";1;0;1;0;0;0;0;0;0;0;0;"152.206.28.202";157;5;2;"152.206.28.202"
"72.10.160.171";17011;"BO";"Cochabamba";"Departamento de Cochabamba";"Боливия";1;1;1;0;0;0;0;1;0;0;0;"189.28.94.245";157;23;1;"lpz-189-28-94-00245.tigo.bo"
"72.10.160.170";32171;"CR";"Heredia";"Heredia Province";"Коста-Рика";1;1;1;0;0;0;0;1;0;0;0;"186.176.36.31";157;9;0;"186.176.36.31"
"72.10.160.170";30203;"TW";"Kaohsiung";"Kaohsiung";"Тайвань";1;1;1;0;0;0;0;1;0;0;0;"114.40.33.82";157;11;1;"114.40.33.82"
"72.10.160.170";27565;"CA";"Calgary";"Alberta";"Канада";1;1;1;0;0;0;0;1;1;1;0;"137.186.94.26";157;9;0;"d137-186-94-26.abhsia.telus.net"
"72.10.160.170";27307;"CO";"Bogot";"Bogota D.C.";"Колумбия";1;1;1;0;0;0;0;0;0;0;0;"186.30.88.88";157;35;0;"dynamic-186-30-88-88.dynamic.etb.net.co"
"72.10.160.170";23725;"US";"Frederick";"Maryland";"США";1;1;1;0;0;0;0;1;1;1;0;"69.255.242.42";157;27;0;"c-69-255-242-42.hsd1.md.comcast.net"
"72.10.160.170";23385;"MN";"Ulan Bator";"Ulaanbaatar";"Монголия";1;1;1;0;0;0;0;0;0;0;0;"66.181.185.199";157;9;0;"66.181.185.199"
"72.10.160.170";22053;"VE";"Puerto Cabello";"Carabobo";"Венесуэла";1;1;1;0;0;0;0;1;1;0;0;"38.196.152.1";157;27;0;"38.196.152.1"
"72.10.160.170";21543;"HK";"";"";"Гонконг";1;1;1;0;0;0;0;1;0;0;0;"113.253.66.47";157;9;0;"47-66-253-113-on-nets.com"
"72.10.160.170";21123;"IN";"";"Punjab";"Индия";1;1;1;0;0;0;0;0;0;0;0;"103.40.197.77";157;9;0;"103.40.197.77"
"72.10.160.170";18323;"PH";"Bacoor";"Province of Cavite";"Филиппины";1;1;1;0;0;0;0;0;0;0;0;"49.144.137.146";281;35;0;"49.144.137.146"
"72.10.160.170";18045;"PE";"Arequipa";"Arequipa";"Перу";1;1;1;0;0;0;0;0;0;0;0;"179.6.164.11";281;32;0;"179.6.164.11"
"72.10.160.170";16237;"ID";"Jakarta";"Jakarta";"Индонезия";1;1;1;0;0;0;0;0;0;0;0;"182.253.90.79";157;9;0;"182.253.90.79"
"72.10.160.170";9259;"CA";"Ottawa";"Ontario";"Канада";1;1;1;0;0;0;0;0;1;1;0;"209.195.104.43";157;38;0;"209-195-104-43.cpe.distributel.net"
"72.10.160.170";5755;"DO";"Santo Domingo";"Nacional";"Доминиканская Республика";1;1;1;0;0;0;0;1;1;1;0;"152.0.21.33";157;9;0;"33.21.0.152.d.dyn.claro.net.do"
"72.10.160.170";2245;"US";"Lancaster";"Ohio";"США";1;1;1;0;0;0;0;1;1;1;0;"172.59.243.192";157;18;0;"172.59.243.192"
"72.10.160.170";1719;"CO";"Sogamoso";"Departamento de Boyac";"Колумбия";1;1;1;0;0;0;0;1;1;0;0;"45.171.182.110";157;9;0;"45.171.182.110"
"72.10.160.91";21571;"MY";"Kuala Lumpur";"Kuala Lumpur";"Малайзия";1;1;1;0;0;0;0;0;0;0;0;"115.135.26.82";281;22;36;"115.135.26.82"
"72.10.160.90";33179;"BR";"Paulista";"Pernambuco";"Бразилия";1;1;1;0;0;0;0;1;1;0;0;"164.163.15.80";281;49;0;"ip-164.163.15.80.dtel.com.br"
"72.10.160.90";32351;"IN";"Indore";"Madhya Pradesh";"Индия";1;1;1;0;0;0;0;1;0;0;0;"49.43.6.91";281;18;0;"49.43.6.91"
"72.10.160.90";31439;"BD";"Dhaka";"Dhaka";"Бангладеш";1;1;1;0;0;0;0;0;0;0;0;"104.28.240.84";281;33;0;"104.28.240.84"
"72.10.160.90";27433;"ID";"Jakarta";"Jakarta";"Индонезия";1;0;1;0;0;0;0;1;1;0;0;"104.28.213.128";280;49;1;"104.28.213.128"
"72.10.160.90";26405;"TW";"New Taipei City";"New Taipei City";"Тайвань";1;1;1;0;0;0;0;1;0;0;0;"180.176.215.172";280;21;4;"180.176.215.172"
"72.10.160.90";24479;"TW";"Shoufeng";"Hualien County";"Тайвань";1;1;1;0;0;0;0;1;0;0;0;"134.208.48.13";280;18;0;"134.208.48.13"
"72.10.160.90";23631;"CO";"Bogot";"Bogota D.C.";"Колумбия";1;1;1;0;0;0;0;1;1;0;0;"179.33.71.173";157;49;0;"179.33.71.173"
"72.10.160.90";19091;"VE";"Maracay";"Aragua";"Венесуэла";1;1;1;0;0;0;0;1;1;0;0;"82.86.115.211";157;9;0;"82.86.115.211"
"72.10.160.90";19005;"AR";"Buenos Aires";"Buenos Aires";"Аргентина";1;1;1;0;0;0;0;1;0;0;0;"186.18.240.22";280;49;0;"186.18.240.22"
"72.10.160.90";18785;"BR";"Recife";"Pernambuco";"Бразилия";1;1;1;0;0;0;0;1;1;1;0;"152.241.38.154";280;43;0;"152-241-38-154.user.vivozap.com.br"
"72.10.160.90";18469;"VE";"Ciudad Ojeda";"Zulia";"Венесуэла";1;1;1;0;0;0;0;1;1;1;0;"181.208.190.193";280;9;0;"181.208.190.193"
"72.10.160.90";17461;"US";"Los Angeles";"California";"США";1;1;1;0;0;0;0;1;0;0;0;"185.193.48.213";157;9;0;"213.48.193.185.in-addr.arpa"
"72.10.160.90";17381;"PE";"Trujillo";"La Libertad";"Перу";1;1;1;0;0;0;0;1;1;0;0;"179.6.166.145";280;9;0;"179.6.166.145"
"72.10.160.90";17341;"US";"Lakewood";"New Jersey";"США";1;1;1;0;0;0;0;1;1;1;0;"67.80.20.186";157;18;0;"ool-435014ba.dyn.optonline.net"
"72.10.160.90";16787;"MM";"Yangon";"Yangon";"Мьянма (Бирма)";1;1;1;0;0;0;0;0;0;0;0;"210.14.100.150";280;18;2;"210.14.100.150"
"72.10.160.90";16717;"ID";"Jakarta";"Jakarta";"Индонезия";1;1;1;0;0;0;0;1;0;0;0;"182.253.48.171";157;9;0;"182.253.48.171"
"72.10.160.90";16471;"IN";"Delhi";"National Capital Territory of Delhi";"Индия";1;1;1;0;0;0;0;0;0;0;0;"119.252.195.209";157;18;0;"119.252.195.209"
"72.10.160.90";15871;"IN";"Mumbai";"Maharashtra";"Индия";1;1;1;0;0;0;0;0;0;0;0;"203.192.225.23";157;24;0;"dhcp-192-225-23.in2cable.com"
"72.10.160.90";15321;"AR";"San Justo";"Buenos Aires";"Аргентина";1;1;1;0;0;0;0;1;1;0;0;"190.173.177.141";280;33;0;"190.173.177.141"
"72.10.160.90";10929;"BO";"La Paz";"La Paz Department";"Боливия";1;1;1;0;0;0;0;1;1;0;0;"190.129.166.16";157;21;2;"190.129.166.16"
"72.10.160.90";9607;"CA";"Thetford-Mines";"Quebec";"Канада";1;1;1;0;0;0;0;1;1;1;0;"142.113.18.17";280;43;0;"bras-base-thmnpq3708w-grc-05-142-113-18-17.dsl.bell.ca"
"72.10.160.90";9321;"US";"Fort Worth";"Texas";"США";1;0;1;0;0;0;0;1;1;1;0;"104.60.145.144";280;18;1;"104-60-145-144.lightspeed.rcsntx.sbcglobal.net"
"72.10.160.90";5757;"DO";"Santo Domingo";"Nacional";"Доминиканская Республика";1;1;1;0;0;0;0;1;0;0;0;"148.255.19.121";280;33;0;"121.19.255.148.d.dyn.claro.net.do"
"72.10.160.90";5007;"BR";"Sertozinho";"So Paulo";"Бразилия";1;1;1;0;0;0;0;1;0;0;0;"179.156.85.117";280;23;3;"b39c5575.virtua.com.br"
"72.10.160.90";4059;"VE";"Caracas";"Distrito Federal";"Венесуэла";1;1;1;0;0;0;0;0;0;0;0;"190.6.32.86";280;49;0;"host-190-6-32-86.net-uno.net"
"72.10.160.90";3429;"MX";"Mrida";"Yucatn";"Мексика";1;1;1;0;0;0;0;0;1;1;0;"187.155.153.169";280;18;0;"187.155.153.169"
"72.10.160.90";2725;"CO";"Bucaramanga";"Santander Department";"Колумбия";1;1;1;0;0;0;0;1;1;1;0;"191.110.232.83";280;9;0;"191.110.232.83"
"67.43.236.19";15037;"KW";"As Slimyah";"Hawalli";"Кувейт";1;1;1;0;0;0;0;0;0;0;0;"37.39.164.14";157;40;2;"37.39.164.14"
"67.43.236.18";31981;"IN";"New Delhi";"National Capital Territory of Delhi";"Индия";1;1;1;0;0;0;0;0;0;0;0;"103.48.197.246";157;12;0;"103.48.197.246"
"67.43.236.18";31161;"CO";"Bogot";"Bogota D.C.";"Колумбия";1;1;1;0;0;0;0;1;1;0;0;"67.73.244.218";157;21;1;"67.73.244.218"
"67.43.236.18";30767;"CA";"Coquitlam";"British Columbia";"Канада";1;1;1;0;0;0;0;1;1;1;0;"207.81.25.40";157;12;0;"207.81.25.40"
"67.43.236.18";30477;"BO";"Santa Cruz";"Santa Cruz Department";"Боливия";1;1;1;0;0;0;0;1;1;0;0;"189.28.75.240";157;27;1;"lpz-189-28-75-00240.tigo.bo"
"67.43.236.18";30173;"KR";"Osan";"Gyeonggi-do";"Республика Корея";1;1;1;0;0;0;0;0;0;0;0;"220.120.56.183";157;24;0;"220.120.56.183"
"67.43.236.18";29275;"CA";"Scarborough";"Ontario";"Канада";1;0;1;0;0;0;0;1;1;1;0;"99.227.234.144";279;24;0;"pool-99-227-234-144.cpe.net.cable.rogers.com"
"67.43.236.18";29031;"CO";"Medelln";"Antioquia";"Колумбия";1;1;1;0;0;0;0;1;0;0;0;"181.140.116.3";157;9;0;"hfc-181-140-116-3.une.net.co"
"67.43.236.18";27533;"ID";"";"";"Индонезия";1;1;1;0;0;0;0;1;0;0;0;"160.19.227.119";157;12;0;"160.19.227.119"
"67.43.236.18";26695;"VN";"Hanoi";"Hanoi";"Вьетнам";1;1;1;0;0;0;0;0;0;0;0;"14.191.165.213";157;12;0;"14.191.165.213"
"67.43.236.18";24493;"ID";"";"";"Индонезия";1;1;1;0;0;0;0;0;0;0;0;"203.78.121.102";157;12;0;"203.78.121.102"
"67.43.236.18";23027;"BD";"Dhaka";"Dhaka";"Бангладеш";1;1;1;0;0;0;0;0;0;0;0;"103.107.135.188";157;9;0;"103.107.135.188"
"67.43.236.18";21217;"IN";"Coimbatore";"Tamil Nadu";"Индия";1;1;1;0;0;0;0;0;0;0;0;"49.47.217.199";157;6;0;"49.47.217.199"
"67.43.236.18";21101;"MX";"Encarnacin de Daz";"Jalisco";"Мексика";1;1;1;0;0;0;0;0;0;0;0;"201.163.121.109";156;6;0;"201.163.121.109"
"67.43.236.18";20201;"EC";"Manta";"Manab";"Эквадор";1;1;1;0;0;0;0;1;1;0;0;"170.82.158.117";156;6;0;"117-158-82-170.ufinetlatam.net.ec"
"67.43.236.18";19691;"ID";"Makassar";"South Sulawesi";"Индонезия";1;1;1;0;0;0;0;0;0;0;0;"140.213.217.49";156;18;1;"140.213.217.49"
"67.43.236.18";19511;"ID";"Tanjung Barat";"Jakarta";"Индонезия";1;0;1;0;0;0;0;0;0;0;0;"111.94.105.238";156;6;0;"fm-dyn-111-94-105-238.fast.net.id"
"67.43.236.18";17551;"MY";"Johor Bahru";"Johor";"Малайзия";1;1;1;0;0;0;0;0;0;0;0;"147.158.212.244";156;23;6;"147.158.212.244"
"67.43.236.18";17417;"TH";"Bangkok";"Bangkok";"Таиланд";1;1;1;0;0;0;0;1;0;0;0;"124.120.125.28";156;6;0;"124.120.125.28"
"67.43.236.18";16537;"PY";"Asuncin";"Asuncin";"Парагвай";1;1;1;0;0;0;0;1;0;0;0;"181.94.228.144";156;9;0;"host-144.181-94-228.personal.net.py"
"67.43.236.18";15251;"VN";"Da Nang";"Da Nang";"Вьетнам";1;1;1;0;0;0;0;0;0;0;0;"113.165.60.244";156;12;0;"113.165.60.244"
"67.43.236.18";13895;"CO";"Bogot";"Bogota D.C.";"Колумбия";1;1;1;0;0;0;0;1;1;1;0;"181.236.3.43";156;43;1;"181.236.3.43"
"67.43.236.18";12517;"MX";"Ciudad Jurez";"Chihuahua";"Мексика";1;1;1;0;0;0;0;1;1;1;0;"201.127.150.120";156;24;0;"dsl-201-127-150-120-dyn.prod-infinitum.com.mx"
"67.43.236.18";11935;"KR";"Geumcheon-gu";"Seoul";"Республика Корея";1;1;1;0;0;0;0;1;0;0;0;"183.101.59.139";156;6;0;"183.101.59.139"
"67.43.236.18";11389;"ID";"Jakarta";"Jakarta";"Индонезия";1;1;1;0;0;0;0;1;0;0;0;"114.10.44.4";156;6;0;"114.10.44.4"
"67.43.236.18";11303;"CL";"Santiago";"Santiago Metropolitan";"Чили";1;1;1;0;0;0;0;1;1;0;0;"181.42.20.195";156;18;0;"181.42.20.195"
"67.43.236.18";10533;"BR";"Divinpolis";"Minas Gerais";"Бразилия";1;1;1;0;0;0;0;1;0;0;0;"187.0.187.85";156;12;0;"85.187.0.187.in-addr.arpa.verointernet.com.br"
"67.43.236.18";9677;"PE";"Lima region";"Lima region";"Перу";1;1;1;0;0;0;0;1;1;0;0;"190.234.111.246";156;9;0;"190.234.111.246"
"67.43.236.18";7745;"CL";"Parral";"Maule Region";"Чили";1;1;1;0;0;0;0;0;0;0;0;"191.114.206.42";156;24;0;"191.114.206.42"
"67.43.236.18";7369;"PK";"Bahawalpur";"Punjab";"Пакистан";1;1;1;0;0;0;0;1;0;0;0;"119.157.161.208";156;9;0;"119.157.161.208"
"67.43.236.18";7317;"MX";"Cuautitln Izcalli";"Mxico";"Мексика";1;1;1;0;0;0;0;1;1;0;0;"201.145.137.230";156;6;0;"dsl-201-145-137-230-dyn.prod-infinitum.com.mx"
"67.43.236.18";7051;"AE";"Dubai";"Dubai";"ОАЭ";1;1;1;0;0;0;0;0;0;0;0;"2.49.180.61";156;12;0;"2.49.180.61"
"67.43.236.18";6025;"SA";"Medina";"Medina Region";"Саудовская Аравия";1;1;1;0;0;0;0;1;1;0;0;"178.87.98.52";156;6;0;"178.87.98.52"
"67.43.236.18";6005;"MX";"Ciudad Obregn";"Sonora";"Мексика";1;1;1;0;0;0;0;1;1;0;0;"187.137.29.65";156;40;0;"187.137.29.65"
"67.43.236.18";5819;"MX";"Tlaquepaque";"Jalisco";"Мексика";1;1;1;0;0;0;0;1;1;1;0;"189.203.205.198";156;27;1;"fixed-189-203-205-198.totalplay.net"
"67.43.236.18";3903;"US";"Myrtle Beach";"South Carolina";"США";1;1;1;0;0;0;0;1;1;1;0;"216.16.178.73";156;6;0;"73.216-16-178-net.sccoast.net"
"67.43.236.18";1393;"MU";"";"";"Маврикий";1;1;1;0;0;0;0;0;0;0;0;"45.199.187.185";155;6;0;"45.199.187.185"
"67.43.236.18";1387;"PH";"Pasig";"Metro Manila";"Филиппины";1;1;1;0;0;0;0;1;0;0;0;"152.32.98.184";155;21;1;"184.98.32.152.convergeict.com"
"67.43.228.252";24433;"VE";"";"";"Венесуэла";1;1;1;0;0;0;0;1;1;0;0;"190.199.178.124";155;32;0;"190-199-178-124.pod-00-p69.cantv.net"
"67.43.228.251";28965;"AR";"Buenos Aires";"Buenos Aires";"Аргентина";1;1;1;0;0;0;0;0;0;0;0;"186.22.17.197";155;19;0;"cpe-186-22-17-197.telecentro-reversos.com.ar"
"67.43.228.250";33047;"US";"Miami";"Florida";"США";1;1;1;0;0;0;0;1;1;1;0;"174.48.223.58";155;11;0;"c-174-48-223-58.hsd1.fl.comcast.net"
"67.43.228.250";30703;"MX";"Zacatecas City";"Zacatecas";"Мексика";1;1;1;0;0;0;0;1;1;1;0;"187.133.74.251";155;11;0;"187.133.74.251"
"67.43.228.250";30625;"MY";"Kuala Lumpur";"Kuala Lumpur";"Малайзия";1;1;1;0;0;0;0;1;0;0;0;"161.142.139.120";155;8;0;"161.142.139.120"
"67.43.228.250";28303;"MY";"Kuala Lumpur";"Kuala Lumpur";"Малайзия";1;1;1;0;0;0;0;1;0;0;0;"161.142.144.12";155;11;0;"161.142.144.12"
"67.43.228.250";27767;"VE";"Caracas";"Distrito Federal";"Венесуэла";1;1;1;0;0;0;0;1;1;1;0;"186.167.80.164";155;8;0;"186.167.80.164"
"67.43.228.250";26579;"CA";"Milton";"Ontario";"Канада";1;1;1;0;0;0;0;1;1;1;0;"166.48.178.11";155;8;0;"166.48.178.11"
"67.43.228.250";26205;"US";"Wichita";"Kansas";"США";1;1;1;0;0;0;0;1;1;1;0;"72.205.241.110";155;8;0;"ip72-205-241-110.ks.ks.cox.net"
"67.43.228.250";23733;"ID";"";"";"Индонезия";1;0;1;0;0;0;0;1;0;0;0;"103.111.201.121";155;8;0;"103.111.201.121"
"67.43.228.250";21627;"AU";"Brisbane";"Queensland";"Австралия";1;1;1;0;0;0;0;1;0;0;0;"101.115.180.142";155;11;0;"101.115.180.142"
"67.43.228.250";20881;"CA";"Markham";"Ontario";"Канада";1;1;1;0;0;0;0;1;1;1;0;"76.67.64.106";155;23;0;"bras-base-mrhmon2412w-grc-17-76-67-64-106.dsl.bell.ca"
"67.43.228.250";20867;"ID";"Surabaya";"East Java";"Индонезия";1;1;1;0;0;0;0;0;0;0;0;"158.140.175.233";155;8;0;"host-158.140.175-233.myrepublic.co.id"
"67.43.228.250";19495;"AE";"Sharjah";"Sharjah";"ОАЭ";1;1;1;0;0;0;0;1;0;0;0;"5.194.144.108";155;65;8;"5.194.144.108"
"67.43.228.250";19321;"US";"Bristol";"Virginia";"США";1;1;1;0;0;0;0;1;1;1;0;"66.171.94.44";155;43;0;"66.171.94.44"
"67.43.228.250";18843;"US";"Houston";"Texas";"США";1;1;1;0;0;0;0;1;1;0;0;"73.77.194.200";155;23;0;"c-73-77-194-200.hsd1.tx.comcast.net"
"67.43.228.250";16605;"ID";"Bandung";"West Java";"Индонезия";1;1;1;0;0;0;0;0;0;0;0;"36.72.192.127";155;11;0;"36.72.192.127"
"67.43.228.250";14195;"SA";"Dammam";"Eastern Province";"Саудовская Аравия";1;1;1;0;0;0;0;1;1;0;0;"51.39.246.138";155;8;0;"51.39.246.138"
"67.43.228.250";12597;"NP";"Kathmandu";"Bagmati Province";"Непал";1;1;1;0;0;0;0;0;0;0;0;"27.34.66.118";155;8;0;"27.34.66.118"
"67.43.228.250";11011;"IN";"Delhi";"National Capital Territory of Delhi";"Индия";1;1;1;0;0;0;0;1;0;0;0;"103.199.226.93";155;8;0;"103.199.226.93"
"67.43.228.250";9851;"DO";"Santo Domingo";"Nacional";"Доминиканская Республика";1;1;1;0;0;0;0;1;1;0;0;"148.0.107.73";154;40;0;"73.107.0.148.d.dyn.claro.net.do"
"67.43.228.250";9223;"TW";"Taipei";"Taipei City";"Тайвань";1;1;1;0;0;0;0;1;0;0;0;"159.117.85.150";154;8;0;"159.117.85.150"
"67.43.228.250";7499;"US";"Lawrenceville";"Georgia";"США";1;1;1;0;0;0;0;0;0;0;0;"71.204.121.183";154;26;0;"c-71-204-121-183.hsd1.ga.comcast.net"
"67.43.228.250";6511;"ID";"South Tangerang";"Banten";"Индонезия";1;1;1;0;0;0;0;0;0;0;0;"36.69.93.253";154;11;0;"36.69.93.253"
"67.43.228.250";2133;"PK";"";"";"Пакистан";1;1;1;0;0;0;0;1;0;0;0;"103.131.8.26";154;8;0;"103.131.8.26"
"67.43.228.250";1325;"ID";"Malang";"East Java";"Индонезия";1;1;1;0;0;0;0;0;0;0;0;"103.189.207.249";154;8;0;"103.189.207.249"
"49.145.48.72";8082;"PH";"Cebu City";"Province of Cebu";"Филиппины";1;0;1;0;0;0;0;1;1;0;0;"49.145.60.126";408;500;384;"dsl.49.145.60.126.pldt.net"
"31.6.41.62";8118;"CH";"Zurich";"Zurich";"Швейцария";1;1;1;0;0;0;0;0;1;0;0;"31.6.41.62";279;9;0;"31.6.41.62"
"27.79.219.209";16000;"VN";"Hanoi";"Hanoi";"Вьетнам";1;1;1;0;0;0;0;1;0;0;0;"27.79.219.209";295;27;0;"localhost"
"14.224.174.168";4401;"VN";"Hanoi";"Hanoi";"Вьетнам";1;1;1;0;0;0;0;0;0;0;0;"14.229.134.249";1252;53;8;"static.vnpt.vn"
"14.224.174.168";2771;"VN";"Ha Long";"Qung Ninh";"Вьетнам";1;1;1;0;0;0;0;0;0;0;0;"14.171.189.67";280;10;0;"static.vnpt.vn"
"14.224.165.146";2424;"VN";"Bc Giang";"Bc Giang Province";"Вьетнам";1;1;1;0;0;0;0;0;0;0;0;"113.184.34.207";1252;46;8;"113.184.34.207"
"3.89.186.143";3128;"US";"Ashburn";"Virginia";"США";1;0;1;0;0;0;0;1;1;1;0;"3.89.186.143";156;256;24;"ec2-3-89-186-143.compute-1.amazonaws.com"
"194.124.36.22";8080;"TR";"Antakya";"Hatay";"Турция";1;0;1;0;0;0;0;0;1;1;0;"194.124.36.22";132;19;0;"194.124.36.22"
"185.166.24.248";8080;"IQ";"Jamjaml";"Sulaymaniyah";"Ирак";1;0;1;0;0;0;0;0;0;0;0;"185.166.26.88";250;19747;845;"185.166.26.88"
"185.10.129.14";3128;"RU";"";"";"Россия";1;1;1;0;0;0;0;0;0;1;0;"185.10.129.14";136;20002;4826;"static-185.10.129.14.yarnet.ru.129.10.185.in-addr.arpa"
"165.22.220.77";3128;"IN";"Bengaluru";"Karnataka";"Индия";1;0;1;0;0;0;0;1;0;1;0;"165.22.220.77";282;8;0;"165.22.220.77"
"135.181.217.185";3128;"FI";"Helsinki";"Uusimaa";"Финляндия";1;0;1;0;0;0;0;1;1;0;0;"135.181.217.185";138;769;320;"static.185.217.181.135.clients.your-server.de"
"135.125.97.184";20313;"FR";"";"";"Франция";1;1;1;0;0;0;0;0;0;0;0;"135.125.97.184";138;439;0;"ns3187179.ip-135-125-97.eu"
"109.62.240.126";8080;"RU";"";"";"Россия";1;0;1;0;0;0;0;0;0;0;0;"109.62.240.126";139;141;4;"109.62.240.126"
"72.10.164.178";23359;"CA";"Saint-Jean-sur-Richelieu";"Quebec";"Канада";1;0;1;0;0;0;0;1;0;0;0;"45.73.122.182";283;8;0;"45.73.122.182"
"47.91.65.23";3128;"DE";"Frankfurt am Main";"Hesse";"Германия";1;0;1;0;0;0;0;0;1;1;0;"47.91.65.23";152;15373;4622;"47.91.65.23"
"41.45.226.54";8080;"EG";"Giza";"Giza";"Египет";1;0;1;0;0;0;0;1;1;1;0;"41.45.226.54";154;91;53;"41.45.226.54"
"5.231.45.11";8888;"DE";"";"";"Германия";1;0;1;0;0;0;0;1;1;1;0;"5.231.45.11";155;209;263;"11.45.231.5.hostbrr.com"